{
"type": "FeatureCollection",
"name": "aulas",
"crs": { "type": "name", "properties": { "name": "urn:ogc:def:crs:OGC:1.3:CRS84" } },
"features": [
{ "type": "Feature", "properties": { "fid": 37, "Nam": "Pasillo B", "Cat": "Otros", "aula": null, "auxiliary_storage_labeling_positionx": null, "auxiliary_storage_labeling_positiony": null, "auxiliary_storage_labeling_lineanchorpercent": null, "auxiliary_storage_labeling_lineanchorclipping": null, "auxiliary_storage_labeling_lineanchortype": null, "auxiliary_storage_labeling_lineanchortextpoint": null }, "geometry": { "type": "Polygon", "coordinates": [ [ [ -57.937621373349948, -34.903483541521247 ], [ -57.938191047247273, -34.904021808265554 ], [ -57.938168934313552, -34.90403648458858 ], [ -57.937880360791588, -34.903764183662339 ], [ -57.937801581341674, -34.90369190326016 ], [ -57.937723294263293, -34.903618007587681 ], [ -57.937608571689324, -34.903508173459791 ], [ -57.937621373349948, -34.903483541521247 ] ] ] } },
{ "type": "Feature", "properties": { "fid": 38, "Nam": "Biblioteca", "Cat": "Otros", "aula": null, "auxiliary_storage_labeling_positionx": null, "auxiliary_storage_labeling_positiony": null, "auxiliary_storage_labeling_lineanchorpercent": null, "auxiliary_storage_labeling_lineanchorclipping": null, "auxiliary_storage_labeling_lineanchortype": null, "auxiliary_storage_labeling_lineanchortextpoint": null }, "geometry": { "type": "Polygon", "coordinates": [ [ [ -57.937788779681021, -34.903587318654971 ], [ -57.937859498554552, -34.903433181034487 ], [ -57.937819279947092, -34.903417512439795 ], [ -57.937809848217391, -34.903414103565034 ], [ -57.937672392604185, -34.903377946053475 ], [ -57.937637621611465, -34.90344760310586 ], [ -57.937788779681021, -34.903587318654971 ] ] ] } },
{ "type": "Feature", "properties": { "fid": 39, "Nam": "Aula 4", "Cat": "Aula", "aula": "AULA_4", "auxiliary_storage_labeling_positionx": null, "auxiliary_storage_labeling_positiony": null, "auxiliary_storage_labeling_lineanchorpercent": null, "auxiliary_storage_labeling_lineanchorclipping": null, "auxiliary_storage_labeling_lineanchortype": null, "auxiliary_storage_labeling_lineanchortextpoint": null }, "geometry": { "type": "Polygon", "coordinates": [ [ [ -57.93795156531278, -34.90329115740699 ], [ -57.937908144289956, -34.903382684929078 ], [ -57.93809208056328, -34.903435892832277 ], [ -57.938133932146066, -34.903345441007637 ], [ -57.93795156531278, -34.90329115740699 ] ] ] } },
{ "type": "Feature", "properties": { "fid": 40, "Nam": "Escalera Baños Fotocopiadore", "Cat": "Otros", "aula": null, "auxiliary_storage_labeling_positionx": null, "auxiliary_storage_labeling_positiony": null, "auxiliary_storage_labeling_lineanchorpercent": null, "auxiliary_storage_labeling_lineanchorclipping": null, "auxiliary_storage_labeling_lineanchortype": null, "auxiliary_storage_labeling_lineanchortextpoint": null }, "geometry": { "type": "Polygon", "coordinates": [ [ [ -57.938133932146066, -34.90334544100763 ], [ -57.93827327329813, -34.903382187073419 ], [ -57.938239792031894, -34.903447603105867 ], [ -57.938104797681568, -34.903408407943161 ], [ -57.938133932146066, -34.90334544100763 ] ] ] } },
{ "type": "Feature", "properties": { "fid": 41, "Nam": "Aula 6", "Cat": "Aula", "aula": "AULA_6", "auxiliary_storage_labeling_positionx": -57.938375836445275, "auxiliary_storage_labeling_positiony": -34.903465597130555, "auxiliary_storage_labeling_lineanchorpercent": null, "auxiliary_storage_labeling_lineanchorclipping": null, "auxiliary_storage_labeling_lineanchortype": null, "auxiliary_storage_labeling_lineanchortextpoint": null }, "geometry": { "type": "Polygon", "coordinates": [ [ [ -57.938450998470678, -34.903539490257288 ], [ -57.938495911507694, -34.903447266221463 ], [ -57.93827327329813, -34.903382187073419 ], [ -57.938228467485978, -34.90347667688134 ], [ -57.938450998470678, -34.903539490257288 ] ] ] } },
{ "type": "Feature", "properties": { "fid": 42, "Nam": "Aula 10A", "Cat": "Aula", "aula": "AULA_10A", "auxiliary_storage_labeling_positionx": -57.938508913730665, "auxiliary_storage_labeling_positiony": -34.903663235608505, "auxiliary_storage_labeling_lineanchorpercent": null, "auxiliary_storage_labeling_lineanchorclipping": null, "auxiliary_storage_labeling_lineanchortype": null, "auxiliary_storage_labeling_lineanchortextpoint": null }, "geometry": { "type": "Polygon", "coordinates": [ [ [ -57.938387507852234, -34.90366960093597 ], [ -57.938559639765529, -34.903720887209246 ], [ -57.938601685130052, -34.903634159652917 ], [ -57.938428370340198, -34.903584895843998 ], [ -57.938387507852234, -34.90366960093597 ] ] ] } },
{ "type": "Feature", "properties": { "fid": 43, "Nam": "Aula 11", "Cat": "Aula", "aula": "AULA_11", "auxiliary_storage_labeling_positionx": -57.938409206548911, "auxiliary_storage_labeling_positiony": -34.903878590514232, "auxiliary_storage_labeling_lineanchorpercent": null, "auxiliary_storage_labeling_lineanchorclipping": null, "auxiliary_storage_labeling_lineanchortype": null, "auxiliary_storage_labeling_lineanchortextpoint": null }, "geometry": { "type": "Polygon", "coordinates": [ [ [ -57.938348113775582, -34.903751262030866 ], [ -57.938261948752199, -34.903939836888568 ], [ -57.938432309312688, -34.903987889084995 ], [ -57.938520443822306, -34.903801737142288 ], [ -57.938348113775582, -34.903751262030866 ] ] ] } },
{ "type": "Feature", "properties": { "fid": 44, "Nam": "Aula CEFI", "Cat": "Otros", "aula": null, "auxiliary_storage_labeling_positionx": null, "auxiliary_storage_labeling_positiony": null, "auxiliary_storage_labeling_lineanchorpercent": null, "auxiliary_storage_labeling_lineanchorclipping": null, "auxiliary_storage_labeling_lineanchortype": null, "auxiliary_storage_labeling_lineanchortextpoint": null }, "geometry": { "type": "Polygon", "coordinates": [ [ [ -57.938584187312188, -34.903577085182185 ], [ -57.938563285341964, -34.903623244719554 ], [ -57.938584167334028, -34.903629180313729 ], [ -57.938591837698787, -34.903613565769184 ], [ -57.938609070703464, -34.903615988579297 ], [ -57.938621872364081, -34.903587722456791 ], [ -57.938584187312188, -34.903577085182185 ] ] ] } },
{ "type": "Feature", "properties": { "fid": 46, "Nam": "Pasillo A", "Cat": "Oficina", "aula": null, "auxiliary_storage_labeling_positionx": null, "auxiliary_storage_labeling_positiony": null, "auxiliary_storage_labeling_lineanchorpercent": null, "auxiliary_storage_labeling_lineanchorclipping": null, "auxiliary_storage_labeling_lineanchortype": null, "auxiliary_storage_labeling_lineanchortextpoint": null }, "geometry": { "type": "Polygon", "coordinates": [ [ [ -57.938563285341964, -34.903623244719554 ], [ -57.938428370340198, -34.903584895843998 ], [ -57.938435963482902, -34.903566105319221 ], [ -57.938125561829501, -34.903475465474216 ], [ -57.937800596598535, -34.903381379467753 ], [ -57.937685874024545, -34.903349075234672 ], [ -57.937699168056724, -34.903323231839032 ], [ -57.93791204164156, -34.903384269746034 ], [ -57.93809208056328, -34.903435892832277 ], [ -57.938104797681568, -34.903408407943161 ], [ -57.938239792031894, -34.903447603105867 ], [ -57.938228467485978, -34.90347667688134 ], [ -57.938584187312188, -34.903577085182185 ], [ -57.938563285341964, -34.903623244719554 ] ] ] } },
{ "type": "Feature", "properties": { "fid": 50, "Nam": "Aula 5", "Cat": "Aula", "aula": "AULA_5", "auxiliary_storage_labeling_positionx": -57.938025743633197, "auxiliary_storage_labeling_positiony": -34.903563841722637, "auxiliary_storage_labeling_lineanchorpercent": null, "auxiliary_storage_labeling_lineanchorclipping": null, "auxiliary_storage_labeling_lineanchortype": null, "auxiliary_storage_labeling_lineanchortextpoint": null }, "geometry": { "type": "Polygon", "coordinates": [ [ [ -57.938125561829501, -34.903475465474209 ], [ -57.938044320521769, -34.90366484856812 ], [ -57.937874944704404, -34.903615584777612 ], [ -57.937966993942275, -34.903429555901539 ], [ -57.938125561829501, -34.903475465474209 ] ] ] } },
{ "type": "Feature", "properties": { "fid": 55, "Nam": "Patio Cemento", "Cat": "Otros", "aula": null, "auxiliary_storage_labeling_positionx": null, "auxiliary_storage_labeling_positiony": null, "auxiliary_storage_labeling_lineanchorpercent": null, "auxiliary_storage_labeling_lineanchorclipping": null, "auxiliary_storage_labeling_lineanchortype": null, "auxiliary_storage_labeling_lineanchortextpoint": null }, "geometry": { "type": "Polygon", "coordinates": [ ] } },
{ "type": "Feature", "properties": { "fid": 60, "Nam": "Aula 15", "Cat": "Aula", "aula": "AULA_15", "auxiliary_storage_labeling_positionx": null, "auxiliary_storage_labeling_positiony": null, "auxiliary_storage_labeling_lineanchorpercent": null, "auxiliary_storage_labeling_lineanchorclipping": null, "auxiliary_storage_labeling_lineanchortype": null, "auxiliary_storage_labeling_lineanchortextpoint": null }, "geometry": { "type": "Polygon", "coordinates": [ [ [ -57.937502032356818, -34.903331030358743 ], [ -57.937244450272949, -34.903228489680821 ], [ -57.937145126956523, -34.903300820762823 ], [ -57.937310317615619, -34.903357756998545 ], [ -57.937463198985604, -34.903409039957239 ], [ -57.937502032356818, -34.903331030358743 ] ] ] } },
{ "type": "Feature", "properties": { "fid": 63, "Nam": "Patio Frente", "Cat": "Otros", "aula": null, "auxiliary_storage_labeling_positionx": null, "auxiliary_storage_labeling_positiony": null, "auxiliary_storage_labeling_lineanchorpercent": null, "auxiliary_storage_labeling_lineanchorclipping": null, "auxiliary_storage_labeling_lineanchortype": null, "auxiliary_storage_labeling_lineanchortextpoint": null }, "geometry": { "type": "Polygon", "coordinates": [ [ [ -57.937401884029285, -34.903452453196515 ], [ -57.937354631056174, -34.903485762434045 ], [ -57.937145126956523, -34.903300820762823 ], [ -57.937463198985604, -34.903409039957239 ], [ -57.937401884029285, -34.903452453196515 ] ] ] } },
{ "type": "Feature", "properties": { "fid": 70, "Nam": "Aula 3", "Cat": "Aula", "aula": "AULA_3", "auxiliary_storage_labeling_positionx": null, "auxiliary_storage_labeling_positiony": null, "auxiliary_storage_labeling_lineanchorpercent": null, "auxiliary_storage_labeling_lineanchorclipping": null, "auxiliary_storage_labeling_lineanchortype": null, "auxiliary_storage_labeling_lineanchortextpoint": null }, "geometry": { "type": "Polygon", "coordinates": [ [ [ -57.937882018582904, -34.903270468612924 ], [ -57.937837914323204, -34.903363014993964 ], [ -57.937908144289956, -34.903382684929078 ], [ -57.93795156531278, -34.90329115740699 ], [ -57.937882018582904, -34.903270468612924 ] ] ] } },
{ "type": "Feature", "properties": { "fid": 71, "Nam": "Aula 1", "Cat": "Aula", "aula": "AULA_1", "auxiliary_storage_labeling_positionx": null, "auxiliary_storage_labeling_positiony": null, "auxiliary_storage_labeling_lineanchorpercent": null, "auxiliary_storage_labeling_lineanchorclipping": null, "auxiliary_storage_labeling_lineanchortype": null, "auxiliary_storage_labeling_lineanchortextpoint": null }, "geometry": { "type": "Polygon", "coordinates": [ [ [ -57.937768709374438, -34.903343171642973 ], [ -57.937813656461508, -34.90325013221166 ], [ -57.937744466240446, -34.903229549461734 ], [ -57.937699168056724, -34.903323231839032 ], [ -57.937768709374438, -34.903343171642973 ] ] ] } },
{ "type": "Feature", "properties": { "fid": 72, "Nam": "Aula 2", "Cat": "Aula", "aula": "AULA_2", "auxiliary_storage_labeling_positionx": null, "auxiliary_storage_labeling_positiony": null, "auxiliary_storage_labeling_lineanchorpercent": null, "auxiliary_storage_labeling_lineanchorclipping": null, "auxiliary_storage_labeling_lineanchortype": null, "auxiliary_storage_labeling_lineanchortextpoint": null }, "geometry": { "type": "Polygon", "coordinates": [ [ [ -57.937813656461508, -34.90325013221166 ], [ -57.937768709374438, -34.903343171642973 ], [ -57.937837914323204, -34.903363014993964 ], [ -57.937882018582904, -34.903270468612924 ], [ -57.937813656461508, -34.90325013221166 ] ] ] } },
{ "type": "Feature", "properties": { "fid": 73, "Nam": "Aula 8", "Cat": "Aula", "aula": "AULA_8", "auxiliary_storage_labeling_positionx": null, "auxiliary_storage_labeling_positiony": null, "auxiliary_storage_labeling_lineanchorpercent": null, "auxiliary_storage_labeling_lineanchorclipping": null, "auxiliary_storage_labeling_lineanchortype": null, "auxiliary_storage_labeling_lineanchortextpoint": null }, "geometry": { "type": "Polygon", "coordinates": [ [ [ -57.938564842751759, -34.903571624836218 ], [ -57.9386077365128, -34.903479953655243 ], [ -57.938552438759444, -34.903463789636582 ], [ -57.938508275788564, -34.903555657803466 ], [ -57.938564842751759, -34.903571624836218 ] ] ] } },
{ "type": "Feature", "properties": { "fid": 74, "Nam": "Aula 7", "Cat": "Aula", "aula": "AULA_7", "auxiliary_storage_labeling_positionx": null, "auxiliary_storage_labeling_positiony": null, "auxiliary_storage_labeling_lineanchorpercent": null, "auxiliary_storage_labeling_lineanchorclipping": null, "auxiliary_storage_labeling_lineanchortype": null, "auxiliary_storage_labeling_lineanchortextpoint": null }, "geometry": { "type": "Polygon", "coordinates": [ [ [ -57.938508275788564, -34.903555657803466 ], [ -57.938552438759444, -34.903463789636582 ], [ -57.938495911507694, -34.903447266221463 ], [ -57.938450998470678, -34.903539490257288 ], [ -57.938508275788564, -34.903555657803466 ] ] ] } },
{ "type": "Feature", "properties": { "fid": 75, "Nam": "Aula 9", "Cat": "Aula", "aula": "AULA_9", "auxiliary_storage_labeling_positionx": null, "auxiliary_storage_labeling_positiony": null, "auxiliary_storage_labeling_lineanchorpercent": null, "auxiliary_storage_labeling_lineanchorclipping": null, "auxiliary_storage_labeling_lineanchortype": null, "auxiliary_storage_labeling_lineanchortextpoint": null }, "geometry": { "type": "Polygon", "coordinates": [ [ [ -57.9386077365128, -34.903479953655243 ], [ -57.938564842751759, -34.903571624836218 ], [ -57.938621872364081, -34.903587722456791 ], [ -57.938664216318422, -34.903496463194855 ], [ -57.9386077365128, -34.903479953655243 ] ] ] } },
{ "type": "Feature", "properties": { "fid": 76, "Nam": "Aulas 10B", "Cat": "Aula", "aula": "AULAS_10B", "auxiliary_storage_labeling_positionx": -57.938472403267888, "auxiliary_storage_labeling_positiony": -34.90374739186479, "auxiliary_storage_labeling_lineanchorpercent": null, "auxiliary_storage_labeling_lineanchorclipping": null, "auxiliary_storage_labeling_lineanchortype": null, "auxiliary_storage_labeling_lineanchortextpoint": null }, "geometry": { "type": "Polygon", "coordinates": [ [ [ -57.938559639765529, -34.903720887209246 ], [ -57.938387507852234, -34.90366960093597 ], [ -57.938348113775582, -34.903751262030866 ], [ -57.938520443822306, -34.903801737142288 ], [ -57.938559639765529, -34.903720887209246 ] ] ] } },
{ "type": "Feature", "properties": { "fid": 77, "Nam": "Aula 14", "Cat": "Aula", "aula": "AULA_14", "auxiliary_storage_labeling_positionx": null, "auxiliary_storage_labeling_positiony": null, "auxiliary_storage_labeling_lineanchorpercent": null, "auxiliary_storage_labeling_lineanchorclipping": null, "auxiliary_storage_labeling_lineanchortype": null, "auxiliary_storage_labeling_lineanchortextpoint": null }, "geometry": { "type": "Polygon", "coordinates": [ [ [ -57.937244450272949, -34.903228489680821 ], [ -57.937502032356818, -34.903331030358743 ], [ -57.937550841123652, -34.903232981792101 ], [ -57.937568074128322, -34.903238231238277 ], [ -57.937576936816455, -34.903212387807748 ], [ -57.937591215591745, -34.903186140565339 ], [ -57.937382450049427, -34.903127992798389 ], [ -57.937244450272949, -34.903228489680821 ] ] ] } },
{ "type": "Feature", "properties": { "fid": 78, "Nam": "Hall Central", "Cat": "Otros", "aula": null, "auxiliary_storage_labeling_positionx": null, "auxiliary_storage_labeling_positiony": null, "auxiliary_storage_labeling_lineanchorpercent": null, "auxiliary_storage_labeling_lineanchorclipping": null, "auxiliary_storage_labeling_lineanchortype": null, "auxiliary_storage_labeling_lineanchortextpoint": null }, "geometry": { "type": "Polygon", "coordinates": [ [ [ -57.937568074128322, -34.903238231238277 ], [ -57.937550841123652, -34.903232981792101 ], [ -57.937463198985604, -34.903409039957239 ], [ -57.937401884029285, -34.903452453196515 ], [ -57.93754567122226, -34.903593173781161 ], [ -57.937580014138746, -34.903565917155639 ], [ -57.937595717013942, -34.903534165766331 ], [ -57.937699168056724, -34.903323231839032 ], [ -57.937730951981699, -34.903257498670484 ], [ -57.937693628876659, -34.903246307308642 ], [ -57.937672949271033, -34.903284668632018 ], [ -57.937651284922318, -34.903279015385486 ], [ -57.937605001995486, -34.903264882267457 ], [ -57.937581860532056, -34.903256402395471 ], [ -57.937598647103357, -34.903218992901493 ], [ -57.937576936816455, -34.903212387807748 ], [ -57.937568074128322, -34.903238231238277 ] ] ] } },
{ "type": "Feature", "properties": { "fid": 79, "Nam": "Baños", "Cat": "Otros", "aula": null, "auxiliary_storage_labeling_positionx": null, "auxiliary_storage_labeling_positiony": null, "auxiliary_storage_labeling_lineanchorpercent": null, "auxiliary_storage_labeling_lineanchorclipping": null, "auxiliary_storage_labeling_lineanchortype": null, "auxiliary_storage_labeling_lineanchortextpoint": null }, "geometry": { "type": "Polygon", "coordinates": [ [ [ -57.937576936816455, -34.903212387807756 ], [ -57.937598647103357, -34.903218992901508 ], [ -57.937581860532056, -34.903256402395471 ], [ -57.937605001995486, -34.903264882267457 ], [ -57.937651284922318, -34.903279015385486 ], [ -57.937672949271033, -34.903284668632018 ], [ -57.937693628876659, -34.903246307308642 ], [ -57.937730951981699, -34.903257498670484 ], [ -57.937744466240446, -34.903229549461734 ], [ -57.937591215591745, -34.903186140565339 ], [ -57.937576936816455, -34.903212387807756 ] ] ] } },
{ "type": "Feature", "properties": { "fid": 80, "Nam": null, "Cat": "Otros", "aula": null, "auxiliary_storage_labeling_positionx": null, "auxiliary_storage_labeling_positiony": null, "auxiliary_storage_labeling_lineanchorpercent": null, "auxiliary_storage_labeling_lineanchorclipping": null, "auxiliary_storage_labeling_lineanchortype": null, "auxiliary_storage_labeling_lineanchortextpoint": null }, "geometry": { "type": "Polygon", "coordinates": [ [ [ -57.938432309312688, -34.903987889084995 ], [ -57.938375691549986, -34.904219131528407 ], [ -57.938191047247273, -34.904021808265554 ], [ -57.937621373349948, -34.903483541521247 ], [ -57.937637621611465, -34.90344760310586 ], [ -57.937788779681021, -34.903587318654971 ], [ -57.937859498554552, -34.903433181034487 ], [ -57.937809848217391, -34.903414103565034 ], [ -57.937672392604185, -34.903377946053475 ], [ -57.937685874024545, -34.903349075234672 ], [ -57.937966993942275, -34.903429555901539 ], [ -57.937874944704404, -34.903615584777612 ], [ -57.938044320521769, -34.90366484856812 ], [ -57.938125561829501, -34.903475465474216 ], [ -57.938435963482902, -34.903566105319221 ], [ -57.938428370340198, -34.903584895843998 ], [ -57.938261948752199, -34.903939836888568 ], [ -57.938432309312688, -34.903987889084995 ] ] ] } },
{ "type": "Feature", "properties": { "fid": 81, "Nam": null, "Cat": "Otros", "aula": null, "auxiliary_storage_labeling_positionx": null, "auxiliary_storage_labeling_positiony": null, "auxiliary_storage_labeling_lineanchorpercent": null, "auxiliary_storage_labeling_lineanchorclipping": null, "auxiliary_storage_labeling_lineanchortype": null, "auxiliary_storage_labeling_lineanchortextpoint": null }, "geometry": { "type": "Polygon", "coordinates": [ [ [ -57.937580014138746, -34.903565917155639 ], [ -57.937565716380263, -34.903577264726735 ], [ -57.93754567122226, -34.903593173781161 ], [ -57.937468087561484, -34.903517244808839 ], [ -57.937401884029285, -34.903452453196515 ], [ -57.937354631056174, -34.903485762434045 ], [ -57.937421593588617, -34.903547140363884 ], [ -57.937653992965892, -34.903765193164709 ], [ -57.93769806022069, -34.90380759225318 ], [ -57.9381234692503, -34.90420735401117 ], [ -57.93825640957207, -34.90433253153531 ], [ -57.938344051710118, -34.904250156669931 ], [ -57.938375691549986, -34.904219131528407 ], [ -57.938191047247273, -34.904021808265554 ], [ -57.938168934313552, -34.90403648458858 ], [ -57.937608571689324, -34.903508173459791 ], [ -57.937580014138746, -34.903565917155639 ] ] ] } },
{ "type": "Feature", "properties": { "fid": 82, "Nam": "Aula 1-1", "Cat": "Aula", "aula": "AULA_1-1", "auxiliary_storage_labeling_positionx": null, "auxiliary_storage_labeling_positiony": null, "auxiliary_storage_labeling_lineanchorpercent": null, "auxiliary_storage_labeling_lineanchorclipping": null, "auxiliary_storage_labeling_lineanchortype": null, "auxiliary_storage_labeling_lineanchortextpoint": null }, "geometry": { "type": "Polygon", "coordinates": [ [ [ -57.938794039633954, -34.902939824549932 ], [ -57.938792070325071, -34.902939841735829 ], [ -57.938790101616057, -34.902939893288291 ], [ -57.938788134106595, -34.902939979191608 ], [ -57.938786168396021, -34.902940099419617 ], [ -57.938784205083103, -34.902940253935697 ], [ -57.938782244765882, -34.902940442692774 ], [ -57.938780288041492, -34.902940665633359 ], [ -57.938778335505965, -34.902940922689538 ], [ -57.938776387754075, -34.902941213783009 ], [ -57.938774445379117, -34.902941538825104 ], [ -57.938772508972761, -34.902941897716808 ], [ -57.938770579124849, -34.902942290348804 ], [ -57.938768656423235, -34.902942716601487 ], [ -57.938766741453598, -34.902943176345019 ], [ -57.938764834799244, -34.902943669439367 ], [ -57.93876293704097, -34.902944195734314 ], [ -57.938761048756845, -34.902944755069548 ], [ -57.938759170522061, -34.902945347274702 ], [ -57.938757302908748, -34.902945972169377 ], [ -57.9387554464858, -34.902946629563225 ], [ -57.938753601818696, -34.902947319255993 ], [ -57.938751769469341, -34.902948041037597 ], [ -57.938749949995888, -34.902948794688179 ], [ -57.938748143952566, -34.902949579978163 ], [ -57.938746351889513, -34.902950396668345 ], [ -57.938744574352611, -34.902951244509957 ], [ -57.938742811883309, -34.902952123244738 ], [ -57.938741065018483, -34.902953032605012 ], [ -57.938739334290233, -34.902953972313774 ], [ -57.938737620225758, -34.902954942084797 ], [ -57.938735923347181, -34.902955941622665 ], [ -57.938734244171393, -34.90295697062291 ], [ -57.938732583209884, -34.902958028772098 ], [ -57.93873094096859, -34.90295911574789 ], [ -57.938729317947768, -34.902960231219204 ], [ -57.938727714641793, -34.902961374846235 ], [ -57.938726131539056, -34.902962546280641 ], [ -57.938724569121781, -34.902963745165586 ], [ -57.938723027865898, -34.902964971135873 ], [ -57.938721508240889, -34.902966223818062 ], [ -57.938720010709638, -34.90296750283057 ], [ -57.93871853572832, -34.902968807783807 ], [ -57.938717083746226, -34.902970138280267 ], [ -57.938715655205634, -34.90297149391467 ], [ -57.9387142505417, -34.90297287427407 ], [ -57.9387128701823, -34.902974278938004 ], [ -57.938711514547897, -34.902975707478596 ], [ -57.938710184051438, -34.90297715946069 ], [ -57.938708879098201, -34.902978634442007 ], [ -57.938707600085692, -34.902980131973258 ], [ -57.938706347403503, -34.902981651598267 ], [ -57.938705121433216, -34.902983192854151 ], [ -57.938703922548271, -34.902984755271426 ], [ -57.938702751113865, -34.902986338374163 ], [ -57.938701607486834, -34.902987941680138 ], [ -57.938700492015521, -34.90298956470096 ], [ -57.938699405039728, -34.902991206942254 ], [ -57.93869834689054, -34.902992867903762 ], [ -57.938697317890295, -34.902994547079551 ], [ -57.938696318352427, -34.902996243958128 ], [ -57.938695348581405, -34.902997958022603 ], [ -57.938694408872642, -34.902999688750853 ], [ -57.938693499512368, -34.903001435615678 ], [ -57.938692620777587, -34.903003198084981 ], [ -57.938691772935975, -34.903004975621883 ], [ -57.938690956245793, -34.903006767684936 ], [ -57.938690170955809, -34.903008573728258 ], [ -57.938689417305227, -34.903010393201711 ], [ -57.938688695523624, -34.903012225551066 ], [ -57.938688005830855, -34.90301407021817 ], [ -57.938687348437007, -34.903015926641118 ], [ -57.938686723542332, -34.903017794254431 ], [ -57.938686131337178, -34.903019672489215 ], [ -57.938685572001944, -34.90302156077334 ], [ -57.938685045706997, -34.903023458531614 ], [ -57.938684552612649, -34.903025365185968 ], [ -57.938684092869117, -34.903027280155605 ], [ -57.938683666616434, -34.903029202857219 ], [ -57.938683273984438, -34.903031132705131 ], [ -57.938682915092734, -34.903033069111487 ], [ -57.938682590050639, -34.903035011486445 ], [ -57.938682298957168, -34.903036959238335 ], [ -57.938682041900989, -34.903038911773862 ], [ -57.938681818960404, -34.903040868498252 ], [ -57.938681630203327, -34.903042828815472 ], [ -57.938681475687247, -34.903044792128391 ], [ -57.938681355459238, -34.903046757838965 ], [ -57.938681269555921, -34.903048725348427 ], [ -57.93868121800346, -34.903050694057441 ], [ -57.938681200817562, -34.903052663366324 ], [ -57.93868121800346, -34.903054632675207 ], [ -57.938681269555921, -34.903056601384222 ], [ -57.938681355459238, -34.903058568893684 ], [ -57.938681475687247, -34.903060534604258 ], [ -57.938681630203327, -34.903062497917176 ], [ -57.938681818960404, -34.903064458234397 ], [ -57.938682041900989, -34.903066414958786 ], [ -57.938682298957168, -34.903068367494313 ], [ -57.938682590050639, -34.903070315246204 ], [ -57.938682915092734, -34.903072257621162 ], [ -57.938683273984438, -34.903074194027518 ], [ -57.938683666616434, -34.903076123875429 ], [ -57.938684092869117, -34.903078046577043 ], [ -57.938684552612649, -34.90307996154668 ], [ -57.938685045706997, -34.903081868201035 ], [ -57.938685572001944, -34.903083765959309 ], [ -57.938686131337178, -34.903085654243434 ], [ -57.938686723542332, -34.903087532478217 ], [ -57.938687348437007, -34.903089400091531 ], [ -57.938688005830855, -34.903091256514479 ], [ -57.938688695523624, -34.903093101181582 ], [ -57.938689417305227, -34.903094933530937 ], [ -57.938690170955809, -34.903096753004391 ], [ -57.938690956245793, -34.903098559047713 ], [ -57.938691772935975, -34.903100351110766 ], [ -57.938692620777587, -34.903102128647667 ], [ -57.938693499512368, -34.90310389111697 ], [ -57.938694408872642, -34.903105637981795 ], [ -57.938695348581405, -34.903107368710046 ], [ -57.938696318352427, -34.90310908277452 ], [ -57.938697317890295, -34.903110779653097 ], [ -57.93869834689054, -34.903112458828886 ], [ -57.938699405039728, -34.903114119790395 ], [ -57.938700492015521, -34.903115762031689 ], [ -57.938701607486834, -34.903117385052511 ], [ -57.938702751113865, -34.903118988358486 ], [ -57.938703922548271, -34.903120571461223 ], [ -57.938705121433216, -34.903122133878497 ], [ -57.938706347403503, -34.903123675134381 ], [ -57.938707600085692, -34.90312519475939 ], [ -57.938708879098201, -34.903126692290641 ], [ -57.938710184051438, -34.903128167271959 ], [ -57.938711514547897, -34.903129619254052 ], [ -57.9387128701823, -34.903131047794645 ], [ -57.9387142505417, -34.903132452458578 ], [ -57.938715655205634, -34.903133832817979 ], [ -57.938717083746226, -34.903135188452381 ], [ -57.93871853572832, -34.903136518948841 ], [ -57.938720010709638, -34.903137823902078 ], [ -57.938721508240889, -34.903139102914587 ], [ -57.938723027865898, -34.903140355596776 ], [ -57.938724569121781, -34.903141581567063 ], [ -57.938726131539056, -34.903142780452008 ], [ -57.938727714641793, -34.903143951886413 ], [ -57.938729317947768, -34.903145095513445 ], [ -57.93873094096859, -34.903146210984758 ], [ -57.938732583209884, -34.903147297960551 ], [ -57.938734244171393, -34.903148356109739 ], [ -57.938735923347181, -34.903149385109984 ], [ -57.938737620225758, -34.903150384647851 ], [ -57.938739334290233, -34.903151354418874 ], [ -57.938741065018483, -34.903152294127636 ], [ -57.938742811883309, -34.903153203487911 ], [ -57.938744574352611, -34.903154082222692 ], [ -57.938746351889513, -34.903154930064304 ], [ -57.938748143952566, -34.903155746754486 ], [ -57.938749949995888, -34.90315653204447 ], [ -57.938751769469341, -34.903157285695052 ], [ -57.938753601818696, -34.903158007476655 ], [ -57.9387554464858, -34.903158697169424 ], [ -57.938757302908748, -34.903159354563272 ], [ -57.938759170522061, -34.903159979457946 ], [ -57.938761048756845, -34.903160571663101 ], [ -57.93876293704097, -34.903161130998335 ], [ -57.938764834799244, -34.903161657293282 ], [ -57.938766741453598, -34.903162150387629 ], [ -57.938768656423235, -34.903162610131162 ], [ -57.938770579124849, -34.903163036383845 ], [ -57.938772508972761, -34.903163429015841 ], [ -57.938774445379117, -34.903163787907545 ], [ -57.938776387754075, -34.903164112949639 ], [ -57.938778335505965, -34.90316440404311 ], [ -57.938780288041492, -34.903164661099289 ], [ -57.938782244765882, -34.903164884039874 ], [ -57.938784205083103, -34.903165072796952 ], [ -57.938786168396021, -34.903165227313032 ], [ -57.938788134106595, -34.903165347541041 ], [ -57.938790101616057, -34.903165433444357 ], [ -57.938792070325071, -34.903165484996819 ], [ -57.938794039633954, -34.903165502182716 ], [ -57.938796008942838, -34.903165484996819 ], [ -57.938797977651852, -34.903165433444357 ], [ -57.938799945161314, -34.903165347541041 ], [ -57.938801910871888, -34.903165227313032 ], [ -57.938803874184806, -34.903165072796952 ], [ -57.938805834502027, -34.903164884039874 ], [ -57.938807791226417, -34.903164661099289 ], [ -57.938809743761944, -34.90316440404311 ], [ -57.938811691513834, -34.903164112949639 ], [ -57.938813633888792, -34.903163787907545 ], [ -57.938815570295148, -34.903163429015841 ], [ -57.93881750014306, -34.903163036383845 ], [ -57.938819422844674, -34.903162610131162 ], [ -57.938821337814311, -34.903162150387629 ], [ -57.938823244468665, -34.903161657293282 ], [ -57.938825142226939, -34.903161130998335 ], [ -57.938827030511064, -34.903160571663101 ], [ -57.938828908745847, -34.903159979457946 ], [ -57.938830776359161, -34.903159354563272 ], [ -57.938832632782109, -34.903158697169424 ], [ -57.938834477449213, -34.903158007476655 ], [ -57.938836309798567, -34.903157285695052 ], [ -57.938838129272021, -34.90315653204447 ], [ -57.938839935315343, -34.903155746754486 ], [ -57.938841727378396, -34.903154930064304 ], [ -57.938843504915297, -34.903154082222692 ], [ -57.9388452673846, -34.903153203487911 ], [ -57.938847014249426, -34.903152294127636 ], [ -57.938848744977676, -34.903151354418874 ], [ -57.93885045904215, -34.903150384647851 ], [ -57.938852155920728, -34.903149385109984 ], [ -57.938853835096516, -34.903148356109739 ], [ -57.938855496058025, -34.903147297960551 ], [ -57.938857138299319, -34.903146210984758 ], [ -57.938858761320141, -34.903145095513445 ], [ -57.938860364626116, -34.903143951886413 ], [ -57.938861947728853, -34.903142780452008 ], [ -57.938863510146128, -34.903141581567063 ], [ -57.938865051402011, -34.903140355596776 ], [ -57.93886657102702, -34.903139102914587 ], [ -57.938868068558271, -34.903137823902078 ], [ -57.938869543539589, -34.903136518948841 ], [ -57.938870995521683, -34.903135188452381 ], [ -57.938872424062275, -34.903133832817979 ], [ -57.938873828726209, -34.903132452458578 ], [ -57.938875209085609, -34.903131047794645 ], [ -57.938876564720012, -34.903129619254052 ], [ -57.938877895216471, -34.903128167271959 ], [ -57.938879200169708, -34.903126692290641 ], [ -57.938880479182217, -34.90312519475939 ], [ -57.938881731864406, -34.903123675134381 ], [ -57.938882957834693, -34.903122133878497 ], [ -57.938884156719638, -34.903120571461223 ], [ -57.938885328154043, -34.903118988358486 ], [ -57.938886471781075, -34.903117385052511 ], [ -57.938887587252388, -34.903115762031689 ], [ -57.938888674228181, -34.903114119790395 ], [ -57.938889732377369, -34.903112458828886 ], [ -57.938890761377614, -34.903110779653097 ], [ -57.938891760915482, -34.90310908277452 ], [ -57.938892730686504, -34.903107368710046 ], [ -57.938893670395267, -34.903105637981795 ], [ -57.938894579755541, -34.90310389111697 ], [ -57.938895458490322, -34.903102128647667 ], [ -57.938896306331934, -34.903100351110766 ], [ -57.938897123022116, -34.903098559047713 ], [ -57.9388979083121, -34.903096753004391 ], [ -57.938898661962682, -34.903094933530937 ], [ -57.938899383744285, -34.903093101181582 ], [ -57.938900073437054, -34.903091256514479 ], [ -57.938900730830902, -34.903089400091531 ], [ -57.938901355725577, -34.903087532478217 ], [ -57.938901947930731, -34.903085654243434 ], [ -57.938902507265965, -34.903083765959309 ], [ -57.938903033560912, -34.903081868201035 ], [ -57.93890352665526, -34.90307996154668 ], [ -57.938903986398792, -34.903078046577043 ], [ -57.938904412651475, -34.903076123875429 ], [ -57.938904805283471, -34.903074194027518 ], [ -57.938905164175175, -34.903072257621162 ], [ -57.938905489217269, -34.903070315246204 ], [ -57.938905780310741, -34.903068367494313 ], [ -57.93890603736692, -34.903066414958786 ], [ -57.938906260307505, -34.903064458234397 ], [ -57.938906449064582, -34.903062497917176 ], [ -57.938906603580662, -34.903060534604258 ], [ -57.938906723808671, -34.903058568893684 ], [ -57.938906809711987, -34.903056601384222 ], [ -57.938906861264449, -34.903054632675207 ], [ -57.938906878450346, -34.903052663366324 ], [ -57.938906861264449, -34.903050694057441 ], [ -57.938906809711987, -34.903048725348427 ], [ -57.938906723808671, -34.903046757838965 ], [ -57.938906603580662, -34.903044792128391 ], [ -57.938906449064582, -34.903042828815472 ], [ -57.938906260307505, -34.903040868498252 ], [ -57.93890603736692, -34.903038911773862 ], [ -57.938905780310741, -34.903036959238335 ], [ -57.938905489217269, -34.903035011486445 ], [ -57.938905164175175, -34.903033069111487 ], [ -57.938904805283471, -34.903031132705131 ], [ -57.938904412651475, -34.903029202857219 ], [ -57.938903986398792, -34.903027280155605 ], [ -57.93890352665526, -34.903025365185968 ], [ -57.938903033560912, -34.903023458531614 ], [ -57.938902507265965, -34.90302156077334 ], [ -57.938901947930731, -34.903019672489215 ], [ -57.938901355725577, -34.903017794254431 ], [ -57.938900730830902, -34.903015926641118 ], [ -57.938900073437054, -34.90301407021817 ], [ -57.938899383744285, -34.903012225551066 ], [ -57.938898661962682, -34.903010393201711 ], [ -57.9388979083121, -34.903008573728258 ], [ -57.938897123022116, -34.903006767684936 ], [ -57.938896306331934, -34.903004975621883 ], [ -57.938895458490322, -34.903003198084981 ], [ -57.938894579755541, -34.903001435615678 ], [ -57.938893670395267, -34.902999688750853 ], [ -57.938892730686504, -34.902997958022603 ], [ -57.938891760915482, -34.902996243958128 ], [ -57.938890761377614, -34.902994547079551 ], [ -57.938889732377369, -34.902992867903762 ], [ -57.938888674228181, -34.902991206942254 ], [ -57.938887587252388, -34.90298956470096 ], [ -57.938886471781075, -34.902987941680138 ], [ -57.938885328154043, -34.902986338374163 ], [ -57.938884156719638, -34.902984755271426 ], [ -57.938882957834693, -34.902983192854151 ], [ -57.938881731864406, -34.902981651598267 ], [ -57.938880479182217, -34.902980131973258 ], [ -57.938879200169708, -34.902978634442007 ], [ -57.938877895216471, -34.90297715946069 ], [ -57.938876564720012, -34.902975707478596 ], [ -57.938875209085609, -34.902974278938004 ], [ -57.938873828726209, -34.90297287427407 ], [ -57.938872424062275, -34.90297149391467 ], [ -57.938870995521683, -34.902970138280267 ], [ -57.938869543539589, -34.902968807783807 ], [ -57.938868068558271, -34.90296750283057 ], [ -57.93886657102702, -34.902966223818062 ], [ -57.938865051402011, -34.902964971135873 ], [ -57.938863510146128, -34.902963745165586 ], [ -57.938861947728853, -34.902962546280641 ], [ -57.938860364626116, -34.902961374846235 ], [ -57.938858761320141, -34.902960231219204 ], [ -57.938857138299319, -34.90295911574789 ], [ -57.938855496058025, -34.902958028772098 ], [ -57.938853835096516, -34.90295697062291 ], [ -57.938852155920728, -34.902955941622665 ], [ -57.93885045904215, -34.902954942084797 ], [ -57.938848744977676, -34.902953972313774 ], [ -57.938847014249426, -34.902953032605012 ], [ -57.9388452673846, -34.902952123244738 ], [ -57.938843504915297, -34.902951244509957 ], [ -57.938841727378396, -34.902950396668345 ], [ -57.938839935315343, -34.902949579978163 ], [ -57.938838129272021, -34.902948794688179 ], [ -57.938836309798567, -34.902948041037597 ], [ -57.938834477449213, -34.902947319255993 ], [ -57.938832632782109, -34.902946629563225 ], [ -57.938830776359161, -34.902945972169377 ], [ -57.938828908745847, -34.902945347274702 ], [ -57.938827030511064, -34.902944755069548 ], [ -57.938825142226939, -34.902944195734314 ], [ -57.938823244468665, -34.902943669439367 ], [ -57.938821337814311, -34.902943176345019 ], [ -57.938819422844674, -34.902942716601487 ], [ -57.93881750014306, -34.902942290348804 ], [ -57.938815570295148, -34.902941897716808 ], [ -57.938813633888792, -34.902941538825104 ], [ -57.938811691513834, -34.902941213783009 ], [ -57.938809743761944, -34.902940922689538 ], [ -57.938807791226417, -34.902940665633359 ], [ -57.938805834502027, -34.902940442692774 ], [ -57.938803874184806, -34.902940253935697 ], [ -57.938801910871888, -34.902940099419617 ], [ -57.938799945161314, -34.902939979191608 ], [ -57.938797977651852, -34.902939893288291 ], [ -57.938796008942838, -34.902939841735829 ], [ -57.938794039633954, -34.902939824549932 ] ] ] } },
{ "type": "Feature", "properties": { "fid": 83, "Nam": "Aula 1-2", "Cat": "Aula", "aula": "AULA_1-2", "auxiliary_storage_labeling_positionx": null, "auxiliary_storage_labeling_positiony": null, "auxiliary_storage_labeling_lineanchorpercent": null, "auxiliary_storage_labeling_lineanchorclipping": null, "auxiliary_storage_labeling_lineanchortype": null, "auxiliary_storage_labeling_lineanchortextpoint": null }, "geometry": { "type": "Polygon", "coordinates": [ [ [ -57.938503186156716, -34.902804521215728 ], [ -57.938501255090479, -34.90280453806789 ], [ -57.938499324612465, -34.902804588619233 ], [ -57.938497395310712, -34.902804672854366 ], [ -57.938495467772903, -34.902804790747631 ], [ -57.938493542586194, -34.90280494226311 ], [ -57.938491620337011, -34.902805127354654 ], [ -57.938489701610884, -34.902805345965881 ], [ -57.938487786992283, -34.902805598030206 ], [ -57.938485877064416, -34.902805883470833 ], [ -57.938483972409067, -34.902806202200829 ], [ -57.938482073606416, -34.902806554123103 ], [ -57.938480181234844, -34.90280693913045 ], [ -57.938478295870802, -34.902807357105594 ], [ -57.938476418088577, -34.902807807921221 ], [ -57.938474548460164, -34.902808291440003 ], [ -57.93847268755507, -34.90280880751466 ], [ -57.938470835940151, -34.902809355987991 ], [ -57.938468994179416, -34.902809936692918 ], [ -57.938467162833895, -34.90281054945256 ], [ -57.93846534246142, -34.902811194080257 ], [ -57.938463533616506, -34.902811870379658 ], [ -57.938461736850137, -34.902812578144754 ], [ -57.938459952709628, -34.902813317159946 ], [ -57.938458181738447, -34.902814087200134 ], [ -57.938456424476051, -34.902814888030747 ], [ -57.938454681457713, -34.902815719407847 ], [ -57.938452953214373, -34.902816581078191 ], [ -57.938451240272478, -34.902817472779297 ], [ -57.938449543153801, -34.90281839423956 ], [ -57.938447862375305, -34.90281934517828 ], [ -57.938446198448965, -34.902820325305797 ], [ -57.938444551881638, -34.902821334323555 ], [ -57.938442923174875, -34.902822371924195 ], [ -57.9384413128248, -34.90282343779166 ], [ -57.938439721321942, -34.902824531601269 ], [ -57.938438149151089, -34.902825653019839 ], [ -57.938436596791135, -34.902826801705778 ], [ -57.938435064714952, -34.902827977309187 ], [ -57.93843355338921, -34.902829179471958 ], [ -57.938432063274291, -34.902830407827906 ], [ -57.938430594824091, -34.90283166200286 ], [ -57.938429148485916, -34.90283294161479 ], [ -57.938427724700325, -34.902834246273905 ], [ -57.938426323901034, -34.902835575582799 ], [ -57.938424946514722, -34.902836929136555 ], [ -57.938423592960966, -34.902838306522867 ], [ -57.938422263652072, -34.902839707322158 ], [ -57.938420958992957, -34.902841131107749 ], [ -57.938419679381028, -34.902842577445924 ], [ -57.938418425206073, -34.902844045896124 ], [ -57.938417196850125, -34.902845536011043 ], [ -57.938415994687354, -34.902847047336785 ], [ -57.938414819083945, -34.902848579412968 ], [ -57.938413670398006, -34.902850131772922 ], [ -57.938412548979436, -34.902851703943774 ], [ -57.938411455169827, -34.902853295446633 ], [ -57.938410389302362, -34.902854905796708 ], [ -57.938409351701722, -34.902856534503471 ], [ -57.938408342683964, -34.902858181070798 ], [ -57.938407362556447, -34.902859844997138 ], [ -57.938406411617727, -34.902861525775634 ], [ -57.938405490157464, -34.902863222894311 ], [ -57.938404598456358, -34.902864935836206 ], [ -57.938403736786015, -34.902866664079546 ], [ -57.938402905408914, -34.902868407097884 ], [ -57.938402104578302, -34.90287016436028 ], [ -57.938401334538113, -34.902871935331461 ], [ -57.938400595522921, -34.90287371947197 ], [ -57.938399887757825, -34.902875516238339 ], [ -57.938399211458425, -34.902877325083253 ], [ -57.938398566830728, -34.902879145455728 ], [ -57.938397954071085, -34.902880976801249 ], [ -57.938397373366158, -34.902882818561984 ], [ -57.938396824892827, -34.902884670176903 ], [ -57.93839630881817, -34.902886531081997 ], [ -57.938395825299388, -34.90288840071041 ], [ -57.938395374483761, -34.902890278492634 ], [ -57.938394956508617, -34.902892163856677 ], [ -57.93839457150127, -34.902894056228249 ], [ -57.938394219578996, -34.9028959550309 ], [ -57.938393900849, -34.902897859686249 ], [ -57.938393615408373, -34.902899769614116 ], [ -57.938393363344048, -34.902901684232717 ], [ -57.938393144732821, -34.902903602958844 ], [ -57.938392959641277, -34.902905525208027 ], [ -57.938392808125798, -34.902907450394736 ], [ -57.938392690232533, -34.902909377932545 ], [ -57.9383926059974, -34.902911307234298 ], [ -57.938392555446057, -34.902913237712312 ], [ -57.938392538593895, -34.902915168778549 ], [ -57.938392555446057, -34.902917099844785 ], [ -57.9383926059974, -34.902919030322799 ], [ -57.938392690232533, -34.902920959624552 ], [ -57.938392808125798, -34.902922887162362 ], [ -57.938392959641277, -34.90292481234907 ], [ -57.938393144732821, -34.902926734598253 ], [ -57.938393363344048, -34.902928653324381 ], [ -57.938393615408373, -34.902930567942981 ], [ -57.938393900849, -34.902932477870849 ], [ -57.938394219578996, -34.902934382526198 ], [ -57.93839457150127, -34.902936281328849 ], [ -57.938394956508617, -34.90293817370042 ], [ -57.938395374483761, -34.902940059064463 ], [ -57.938395825299388, -34.902941936846688 ], [ -57.93839630881817, -34.902943806475101 ], [ -57.938396824892827, -34.902945667380195 ], [ -57.938397373366158, -34.902947518995113 ], [ -57.938397954071085, -34.902949360755848 ], [ -57.938398566830728, -34.902951192101369 ], [ -57.938399211458425, -34.902953012473844 ], [ -57.938399887757825, -34.902954821318758 ], [ -57.938400595522921, -34.902956618085128 ], [ -57.938401334538113, -34.902958402225636 ], [ -57.938402104578302, -34.902960173196817 ], [ -57.938402905408914, -34.902961930459213 ], [ -57.938403736786015, -34.902963673477551 ], [ -57.938404598456358, -34.902965401720891 ], [ -57.938405490157464, -34.902967114662786 ], [ -57.938406411617727, -34.902968811781463 ], [ -57.938407362556447, -34.902970492559959 ], [ -57.938408342683964, -34.9029721564863 ], [ -57.938409351701722, -34.902973803053627 ], [ -57.938410389302362, -34.902975431760389 ], [ -57.938411455169827, -34.902977042110464 ], [ -57.938412548979436, -34.902978633613323 ], [ -57.938413670398006, -34.902980205784175 ], [ -57.938414819083945, -34.902981758144129 ], [ -57.938415994687354, -34.902983290220313 ], [ -57.938417196850125, -34.902984801546054 ], [ -57.938418425206073, -34.902986291660973 ], [ -57.938419679381028, -34.902987760111174 ], [ -57.938420958992957, -34.902989206449348 ], [ -57.938422263652072, -34.902990630234939 ], [ -57.938423592960966, -34.902992031034231 ], [ -57.938424946514722, -34.902993408420542 ], [ -57.938426323901034, -34.902994761974298 ], [ -57.938427724700325, -34.902996091283192 ], [ -57.938429148485916, -34.902997395942307 ], [ -57.938430594824091, -34.902998675554237 ], [ -57.938432063274291, -34.902999929729191 ], [ -57.93843355338921, -34.903001158085139 ], [ -57.938435064714952, -34.90300236024791 ], [ -57.938436596791135, -34.903003535851319 ], [ -57.938438149151089, -34.903004684537258 ], [ -57.938439721321942, -34.903005805955829 ], [ -57.9384413128248, -34.903006899765437 ], [ -57.938442923174875, -34.903007965632902 ], [ -57.938444551881638, -34.903009003233542 ], [ -57.938446198448965, -34.903010012251301 ], [ -57.938447862375305, -34.903010992378817 ], [ -57.938449543153801, -34.903011943317537 ], [ -57.938451240272478, -34.9030128647778 ], [ -57.938452953214373, -34.903013756478906 ], [ -57.938454681457713, -34.90301461814925 ], [ -57.938456424476051, -34.90301544952635 ], [ -57.938458181738447, -34.903016250356963 ], [ -57.938459952709628, -34.903017020397151 ], [ -57.938461736850137, -34.903017759412343 ], [ -57.938463533616506, -34.903018467177439 ], [ -57.93846534246142, -34.90301914347684 ], [ -57.938467162833895, -34.903019788104537 ], [ -57.938468994179416, -34.903020400864179 ], [ -57.938470835940151, -34.903020981569107 ], [ -57.93847268755507, -34.903021530042437 ], [ -57.938474548460164, -34.903022046117094 ], [ -57.938476418088577, -34.903022529635876 ], [ -57.938478295870802, -34.903022980451503 ], [ -57.938480181234844, -34.903023398426647 ], [ -57.938482073606416, -34.903023783433994 ], [ -57.938483972409067, -34.903024135356269 ], [ -57.938485877064416, -34.903024454086264 ], [ -57.938487786992283, -34.903024739526892 ], [ -57.938489701610884, -34.903024991591217 ], [ -57.938491620337011, -34.903025210202443 ], [ -57.938493542586194, -34.903025395293987 ], [ -57.938495467772903, -34.903025546809467 ], [ -57.938497395310712, -34.903025664702731 ], [ -57.938499324612465, -34.903025748937864 ], [ -57.938501255090479, -34.903025799489207 ], [ -57.938503186156716, -34.903025816341369 ], [ -57.938505117222952, -34.903025799489207 ], [ -57.938507047700966, -34.903025748937864 ], [ -57.938508977002719, -34.903025664702731 ], [ -57.938510904540529, -34.903025546809467 ], [ -57.938512829727237, -34.903025395293987 ], [ -57.93851475197642, -34.903025210202443 ], [ -57.938516670702548, -34.903024991591217 ], [ -57.938518585321148, -34.903024739526892 ], [ -57.938520495249016, -34.903024454086264 ], [ -57.938522399904365, -34.903024135356269 ], [ -57.938524298707016, -34.903023783433994 ], [ -57.938526191078587, -34.903023398426647 ], [ -57.93852807644263, -34.903022980451503 ], [ -57.938529954224855, -34.903022529635876 ], [ -57.938531823853268, -34.903022046117094 ], [ -57.938533684758362, -34.903021530042437 ], [ -57.93853553637328, -34.903020981569107 ], [ -57.938537378134015, -34.903020400864179 ], [ -57.938539209479536, -34.903019788104537 ], [ -57.938541029852011, -34.90301914347684 ], [ -57.938542838696925, -34.903018467177439 ], [ -57.938544635463295, -34.903017759412343 ], [ -57.938546419603803, -34.903017020397151 ], [ -57.938548190574984, -34.903016250356963 ], [ -57.93854994783738, -34.90301544952635 ], [ -57.938551690855718, -34.90301461814925 ], [ -57.938553419099058, -34.903013756478906 ], [ -57.938555132040953, -34.9030128647778 ], [ -57.93855682915963, -34.903011943317537 ], [ -57.938558509938126, -34.903010992378817 ], [ -57.938560173864467, -34.903010012251301 ], [ -57.938561820431794, -34.903009003233542 ], [ -57.938563449138556, -34.903007965632902 ], [ -57.938565059488631, -34.903006899765437 ], [ -57.93856665099149, -34.903005805955829 ], [ -57.938568223162342, -34.903004684537258 ], [ -57.938569775522296, -34.903003535851319 ], [ -57.93857130759848, -34.90300236024791 ], [ -57.938572818924222, -34.903001158085139 ], [ -57.93857430903914, -34.902999929729191 ], [ -57.938575777489341, -34.902998675554237 ], [ -57.938577223827515, -34.902997395942307 ], [ -57.938578647613106, -34.902996091283192 ], [ -57.938580048412398, -34.902994761974298 ], [ -57.938581425798709, -34.902993408420542 ], [ -57.938582779352465, -34.902992031034231 ], [ -57.93858410866136, -34.902990630234939 ], [ -57.938585413320475, -34.902989206449348 ], [ -57.938586692932404, -34.902987760111174 ], [ -57.938587947107358, -34.902986291660973 ], [ -57.938589175463306, -34.902984801546054 ], [ -57.938590377626078, -34.902983290220313 ], [ -57.938591553229486, -34.902981758144129 ], [ -57.938592701915425, -34.902980205784175 ], [ -57.938593823333996, -34.902978633613323 ], [ -57.938594917143604, -34.902977042110464 ], [ -57.938595983011069, -34.902975431760389 ], [ -57.938597020611709, -34.902973803053627 ], [ -57.938598029629468, -34.9029721564863 ], [ -57.938599009756985, -34.902970492559959 ], [ -57.938599960695704, -34.902968811781463 ], [ -57.938600882155967, -34.902967114662786 ], [ -57.938601773857073, -34.902965401720891 ], [ -57.938602635527417, -34.902963673477551 ], [ -57.938603466904517, -34.902961930459213 ], [ -57.93860426773513, -34.902960173196817 ], [ -57.938605037775318, -34.902958402225636 ], [ -57.93860577679051, -34.902956618085128 ], [ -57.938606484555606, -34.902954821318758 ], [ -57.938607160855007, -34.902953012473844 ], [ -57.938607805482704, -34.902951192101369 ], [ -57.938608418242346, -34.902949360755848 ], [ -57.938608998947274, -34.902947518995113 ], [ -57.938609547420604, -34.902945667380195 ], [ -57.938610063495261, -34.902943806475101 ], [ -57.938610547014044, -34.902941936846688 ], [ -57.93861099782967, -34.902940059064463 ], [ -57.938611415804814, -34.90293817370042 ], [ -57.938611800812161, -34.902936281328849 ], [ -57.938612152734436, -34.902934382526198 ], [ -57.938612471464431, -34.902932477870849 ], [ -57.938612756905059, -34.902930567942981 ], [ -57.938613008969384, -34.902928653324381 ], [ -57.93861322758061, -34.902926734598253 ], [ -57.938613412672154, -34.90292481234907 ], [ -57.938613564187634, -34.902922887162362 ], [ -57.938613682080899, -34.902920959624552 ], [ -57.938613766316031, -34.902919030322799 ], [ -57.938613816867374, -34.902917099844785 ], [ -57.938613833719536, -34.902915168778549 ], [ -57.938613816867374, -34.902913237712312 ], [ -57.938613766316031, -34.902911307234298 ], [ -57.938613682080899, -34.902909377932545 ], [ -57.938613564187634, -34.902907450394736 ], [ -57.938613412672154, -34.902905525208027 ], [ -57.93861322758061, -34.902903602958844 ], [ -57.938613008969384, -34.902901684232717 ], [ -57.938612756905059, -34.902899769614116 ], [ -57.938612471464431, -34.902897859686249 ], [ -57.938612152734436, -34.9028959550309 ], [ -57.938611800812161, -34.902894056228249 ], [ -57.938611415804814, -34.902892163856677 ], [ -57.93861099782967, -34.902890278492634 ], [ -57.938610547014044, -34.90288840071041 ], [ -57.938610063495261, -34.902886531081997 ], [ -57.938609547420604, -34.902884670176903 ], [ -57.938608998947274, -34.902882818561984 ], [ -57.938608418242346, -34.902880976801249 ], [ -57.938607805482704, -34.902879145455728 ], [ -57.938607160855007, -34.902877325083253 ], [ -57.938606484555606, -34.902875516238339 ], [ -57.93860577679051, -34.90287371947197 ], [ -57.938605037775318, -34.902871935331461 ], [ -57.93860426773513, -34.90287016436028 ], [ -57.938603466904517, -34.902868407097884 ], [ -57.938602635527417, -34.902866664079546 ], [ -57.938601773857073, -34.902864935836206 ], [ -57.938600882155967, -34.902863222894311 ], [ -57.938599960695704, -34.902861525775634 ], [ -57.938599009756985, -34.902859844997138 ], [ -57.938598029629468, -34.902858181070798 ], [ -57.938597020611709, -34.902856534503471 ], [ -57.938595983011069, -34.902854905796708 ], [ -57.938594917143604, -34.902853295446633 ], [ -57.938593823333996, -34.902851703943774 ], [ -57.938592701915425, -34.902850131772922 ], [ -57.938591553229486, -34.902848579412968 ], [ -57.938590377626078, -34.902847047336785 ], [ -57.938589175463306, -34.902845536011043 ], [ -57.938587947107358, -34.902844045896124 ], [ -57.938586692932404, -34.902842577445924 ], [ -57.938585413320475, -34.902841131107749 ], [ -57.93858410866136, -34.902839707322158 ], [ -57.938582779352465, -34.902838306522867 ], [ -57.938581425798709, -34.902836929136555 ], [ -57.938580048412398, -34.902835575582799 ], [ -57.938578647613106, -34.902834246273905 ], [ -57.938577223827515, -34.90283294161479 ], [ -57.938575777489341, -34.90283166200286 ], [ -57.93857430903914, -34.902830407827906 ], [ -57.938572818924222, -34.902829179471958 ], [ -57.93857130759848, -34.902827977309187 ], [ -57.938569775522296, -34.902826801705778 ], [ -57.938568223162342, -34.902825653019839 ], [ -57.93856665099149, -34.902824531601269 ], [ -57.938565059488631, -34.90282343779166 ], [ -57.938563449138556, -34.902822371924195 ], [ -57.938561820431794, -34.902821334323555 ], [ -57.938560173864467, -34.902820325305797 ], [ -57.938558509938126, -34.90281934517828 ], [ -57.93855682915963, -34.90281839423956 ], [ -57.938555132040953, -34.902817472779297 ], [ -57.938553419099058, -34.902816581078191 ], [ -57.938551690855718, -34.902815719407847 ], [ -57.93854994783738, -34.902814888030747 ], [ -57.938548190574984, -34.902814087200134 ], [ -57.938546419603803, -34.902813317159946 ], [ -57.938544635463295, -34.902812578144754 ], [ -57.938542838696925, -34.902811870379658 ], [ -57.938541029852011, -34.902811194080257 ], [ -57.938539209479536, -34.90281054945256 ], [ -57.938537378134015, -34.902809936692918 ], [ -57.93853553637328, -34.902809355987991 ], [ -57.938533684758362, -34.90280880751466 ], [ -57.938531823853268, -34.902808291440003 ], [ -57.938529954224855, -34.902807807921221 ], [ -57.93852807644263, -34.902807357105594 ], [ -57.938526191078587, -34.90280693913045 ], [ -57.938524298707016, -34.902806554123103 ], [ -57.938522399904365, -34.902806202200829 ], [ -57.938520495249016, -34.902805883470833 ], [ -57.938518585321148, -34.902805598030206 ], [ -57.938516670702548, -34.902805345965881 ], [ -57.93851475197642, -34.902805127354654 ], [ -57.938512829727237, -34.90280494226311 ], [ -57.938510904540529, -34.902804790747631 ], [ -57.938508977002719, -34.902804672854366 ], [ -57.938507047700966, -34.902804588619233 ], [ -57.938505117222952, -34.90280453806789 ], [ -57.938503186156716, -34.902804521215728 ] ] ] } },
{ "type": "Feature", "properties": { "fid": 84, "Nam": "Aula 1-3", "Cat": "Aula", "aula": "AULA_1-3", "auxiliary_storage_labeling_positionx": null, "auxiliary_storage_labeling_positiony": null, "auxiliary_storage_labeling_lineanchorpercent": null, "auxiliary_storage_labeling_lineanchorclipping": null, "auxiliary_storage_labeling_lineanchortype": null, "auxiliary_storage_labeling_lineanchortextpoint": null }, "geometry": { "type": "Polygon", "coordinates": [ [ [ -57.938169265053524, -34.902657898056319 ], [ -57.938167163022811, -34.902657916400464 ], [ -57.93816506163239, -34.90265797142731 ], [ -57.93816296152238, -34.902658063120093 ], [ -57.938160863332477, -34.902658191450882 ], [ -57.938158767701829, -34.902658356380591 ], [ -57.938156675268772, -34.902658557858977 ], [ -57.938154586670684, -34.902658795824671 ], [ -57.938152502543772, -34.902659070205189 ], [ -57.938150423522892, -34.902659380916937 ], [ -57.938148350241313, -34.902659727865284 ], [ -57.938146283330596, -34.902660110944545 ], [ -57.938144223420331, -34.902660530038027 ], [ -57.938142171137997, -34.902660985018066 ], [ -57.938140127108724, -34.902661475746079 ], [ -57.938138091955153, -34.902662002072574 ], [ -57.938136066297211, -34.902662563837239 ], [ -57.938134050751934, -34.902663160868954 ], [ -57.938132045933273, -34.902663792985848 ], [ -57.938130052451911, -34.902664459995378 ], [ -57.938128070915091, -34.902665161694372 ], [ -57.938126101926407, -34.902665897869078 ], [ -57.938124146085627, -34.902666668295247 ], [ -57.93812220398852, -34.902667472738209 ], [ -57.938120276226677, -34.902668310952912 ], [ -57.938118363387296, -34.902669182684043 ], [ -57.93811646605306, -34.902670087666046 ], [ -57.938114584801916, -34.90267102562327 ], [ -57.938112720206895, -34.902671996270001 ], [ -57.938110872835992, -34.90267299931056 ], [ -57.93810904325192, -34.902674034439428 ], [ -57.938107232011994, -34.902675101341281 ], [ -57.938105439667929, -34.902676199691129 ], [ -57.938103666765699, -34.902677329154422 ], [ -57.938101913845344, -34.902678489387092 ], [ -57.938100181440817, -34.902679680035739 ], [ -57.938098470079822, -34.902680900737671 ], [ -57.938096780283672, -34.902682151121049 ], [ -57.938095112567076, -34.902683430804998 ], [ -57.938093467438051, -34.90268473939971 ], [ -57.938091845397715, -34.902686076506583 ], [ -57.938090246940156, -34.902687441718307 ], [ -57.938088672552276, -34.902688834619042 ], [ -57.938087122713654, -34.902690254784481 ], [ -57.938085597896389, -34.902691701782047 ], [ -57.938084098564943, -34.902693175170945 ], [ -57.938082625176044, -34.902694674502392 ], [ -57.938081178178479, -34.902696199319657 ], [ -57.938079758013039, -34.902697749158278 ], [ -57.938078365112304, -34.902699323546159 ], [ -57.938076999900581, -34.902700922003717 ], [ -57.938075662793707, -34.902702544044054 ], [ -57.938074354198996, -34.902704189173079 ], [ -57.938073074515046, -34.902705856889675 ], [ -57.938071824131669, -34.902707546685825 ], [ -57.938070603429736, -34.902709258046819 ], [ -57.93806941278109, -34.902710990451347 ], [ -57.938068252548419, -34.902712743371701 ], [ -57.938067123085126, -34.902714516273932 ], [ -57.938066024735278, -34.902716308617997 ], [ -57.938064957833426, -34.902718119857923 ], [ -57.938063922704558, -34.902719949441995 ], [ -57.938062919663999, -34.902721796812898 ], [ -57.938061949017268, -34.902723661407919 ], [ -57.938061011060043, -34.902725542659063 ], [ -57.938060106078041, -34.902727439993299 ], [ -57.938059234346909, -34.902729352832679 ], [ -57.938058396132206, -34.902731280594523 ], [ -57.938057591689244, -34.90273322269163 ], [ -57.938056821263075, -34.90273517853241 ], [ -57.93805608508837, -34.902737147521094 ], [ -57.938055383389376, -34.902739129057913 ], [ -57.938054716379845, -34.902741122539275 ], [ -57.938054084262951, -34.902743127357937 ], [ -57.938053487231237, -34.902745142903214 ], [ -57.938052925466572, -34.902747168561156 ], [ -57.938052399140076, -34.902749203714727 ], [ -57.938051908412064, -34.902751247744 ], [ -57.938051453432024, -34.902753300026333 ], [ -57.938051034338542, -34.902755359936599 ], [ -57.938050651259282, -34.902757426847316 ], [ -57.938050304310934, -34.902759500128894 ], [ -57.938049993599186, -34.902761579149775 ], [ -57.938049719218668, -34.902763663276687 ], [ -57.938049481252975, -34.902765751874774 ], [ -57.938049279774589, -34.902767844307832 ], [ -57.93804911484488, -34.90276993993848 ], [ -57.93804898651409, -34.902772038128383 ], [ -57.938048894821307, -34.902774138238392 ], [ -57.938048839794462, -34.902776239628814 ], [ -57.938048821450316, -34.902778341659527 ], [ -57.938048839794462, -34.90278044369024 ], [ -57.938048894821307, -34.902782545080662 ], [ -57.93804898651409, -34.902784645190671 ], [ -57.93804911484488, -34.902786743380574 ], [ -57.938049279774589, -34.902788839011222 ], [ -57.938049481252975, -34.902790931444279 ], [ -57.938049719218668, -34.902793020042367 ], [ -57.938049993599186, -34.902795104169279 ], [ -57.938050304310934, -34.90279718319016 ], [ -57.938050651259282, -34.902799256471738 ], [ -57.938051034338542, -34.902801323382455 ], [ -57.938051453432024, -34.902803383292721 ], [ -57.938051908412064, -34.902805435575054 ], [ -57.938052399140076, -34.902807479604327 ], [ -57.938052925466572, -34.902809514757898 ], [ -57.938053487231237, -34.90281154041584 ], [ -57.938054084262951, -34.902813555961117 ], [ -57.938054716379845, -34.902815560779779 ], [ -57.938055383389376, -34.902817554261141 ], [ -57.93805608508837, -34.90281953579796 ], [ -57.938056821263075, -34.902821504786644 ], [ -57.938057591689244, -34.902823460627424 ], [ -57.938058396132206, -34.902825402724531 ], [ -57.938059234346909, -34.902827330486375 ], [ -57.938060106078041, -34.902829243325755 ], [ -57.938061011060043, -34.902831140659991 ], [ -57.938061949017268, -34.902833021911135 ], [ -57.938062919663999, -34.902834886506156 ], [ -57.938063922704558, -34.902836733877059 ], [ -57.938064957833426, -34.902838563461131 ], [ -57.938066024735278, -34.902840374701057 ], [ -57.938067123085126, -34.902842167045122 ], [ -57.938068252548419, -34.902843939947353 ], [ -57.93806941278109, -34.902845692867707 ], [ -57.938070603429736, -34.902847425272235 ], [ -57.938071824131669, -34.902849136633229 ], [ -57.938073074515046, -34.902850826429379 ], [ -57.938074354198996, -34.902852494145975 ], [ -57.938075662793707, -34.902854139275 ], [ -57.938076999900581, -34.902855761315337 ], [ -57.938078365112304, -34.902857359772895 ], [ -57.938079758013039, -34.902858934160776 ], [ -57.938081178178479, -34.902860483999397 ], [ -57.938082625176044, -34.902862008816662 ], [ -57.938084098564943, -34.902863508148108 ], [ -57.938085597896389, -34.902864981537007 ], [ -57.938087122713654, -34.902866428534573 ], [ -57.938088672552276, -34.902867848700012 ], [ -57.938090246940156, -34.902869241600747 ], [ -57.938091845397715, -34.902870606812471 ], [ -57.938093467438051, -34.902871943919344 ], [ -57.938095112567076, -34.902873252514055 ], [ -57.938096780283672, -34.902874532198005 ], [ -57.938098470079822, -34.902875782581383 ], [ -57.938100181440817, -34.902877003283315 ], [ -57.938101913845344, -34.902878193931961 ], [ -57.938103666765699, -34.902879354164632 ], [ -57.938105439667929, -34.902880483627925 ], [ -57.938107232011994, -34.902881581977773 ], [ -57.93810904325192, -34.902882648879626 ], [ -57.938110872835992, -34.902883684008494 ], [ -57.938112720206895, -34.902884687049053 ], [ -57.938114584801916, -34.902885657695784 ], [ -57.93811646605306, -34.902886595653008 ], [ -57.938118363387296, -34.902887500635011 ], [ -57.938120276226677, -34.902888372366142 ], [ -57.93812220398852, -34.902889210580845 ], [ -57.938124146085627, -34.902890015023807 ], [ -57.938126101926407, -34.902890785449976 ], [ -57.938128070915091, -34.902891521624682 ], [ -57.938130052451911, -34.902892223323676 ], [ -57.938132045933273, -34.902892890333206 ], [ -57.938134050751934, -34.9028935224501 ], [ -57.938136066297211, -34.902894119481815 ], [ -57.938138091955153, -34.90289468124648 ], [ -57.938140127108724, -34.902895207572975 ], [ -57.938142171137997, -34.902895698300988 ], [ -57.938144223420331, -34.902896153281027 ], [ -57.938146283330596, -34.902896572374509 ], [ -57.938148350241313, -34.90289695545377 ], [ -57.938150423522892, -34.902897302402117 ], [ -57.938152502543772, -34.902897613113865 ], [ -57.938154586670684, -34.902897887494383 ], [ -57.938156675268772, -34.902898125460077 ], [ -57.938158767701829, -34.902898326938463 ], [ -57.938160863332477, -34.902898491868172 ], [ -57.93816296152238, -34.902898620198961 ], [ -57.93816506163239, -34.902898711891744 ], [ -57.938167163022811, -34.90289876691859 ], [ -57.938169265053524, -34.902898785262735 ], [ -57.938171367084237, -34.90289876691859 ], [ -57.938173468474659, -34.902898711891744 ], [ -57.938175568584668, -34.902898620198961 ], [ -57.938177666774571, -34.902898491868172 ], [ -57.93817976240522, -34.902898326938463 ], [ -57.938181854838277, -34.902898125460077 ], [ -57.938183943436364, -34.902897887494383 ], [ -57.938186027563276, -34.902897613113865 ], [ -57.938188106584157, -34.902897302402117 ], [ -57.938190179865735, -34.90289695545377 ], [ -57.938192246776453, -34.902896572374509 ], [ -57.938194306686718, -34.902896153281027 ], [ -57.938196358969051, -34.902895698300988 ], [ -57.938198402998324, -34.902895207572975 ], [ -57.938200438151895, -34.90289468124648 ], [ -57.938202463809837, -34.902894119481815 ], [ -57.938204479355115, -34.9028935224501 ], [ -57.938206484173783, -34.902892890333206 ], [ -57.938208477655138, -34.902892223323676 ], [ -57.938210459191957, -34.902891521624682 ], [ -57.938212428180641, -34.902890785449976 ], [ -57.938214384021421, -34.902890015023807 ], [ -57.938216326118528, -34.902889210580845 ], [ -57.938218253880372, -34.902888372366142 ], [ -57.938220166719752, -34.902887500635011 ], [ -57.938222064053988, -34.902886595653008 ], [ -57.938223945305133, -34.902885657695784 ], [ -57.938225809900153, -34.902884687049053 ], [ -57.938227657271057, -34.902883684008494 ], [ -57.938229486855128, -34.902882648879626 ], [ -57.938231298095054, -34.902881581977773 ], [ -57.93823309043912, -34.902880483627925 ], [ -57.93823486334135, -34.902879354164632 ], [ -57.938236616261705, -34.902878193931961 ], [ -57.938238348666232, -34.902877003283315 ], [ -57.938240060027226, -34.902875782581383 ], [ -57.938241749823376, -34.902874532198005 ], [ -57.938243417539972, -34.902873252514055 ], [ -57.938245062668997, -34.902871943919344 ], [ -57.938246684709334, -34.902870606812471 ], [ -57.938248283166892, -34.902869241600747 ], [ -57.938249857554773, -34.902867848700012 ], [ -57.938251407393395, -34.902866428534573 ], [ -57.938252932210659, -34.902864981537007 ], [ -57.938254431542106, -34.902863508148108 ], [ -57.938255904931012, -34.902862008816662 ], [ -57.93825735192857, -34.902860483999397 ], [ -57.938258772094009, -34.902858934160776 ], [ -57.938260164994745, -34.902857359772895 ], [ -57.938261530206468, -34.902855761315337 ], [ -57.938262867313341, -34.902854139275 ], [ -57.938264175908053, -34.902852494145975 ], [ -57.938265455592003, -34.902850826429379 ], [ -57.93826670597538, -34.902849136633229 ], [ -57.938267926677312, -34.902847425272235 ], [ -57.938269117325959, -34.902845692867707 ], [ -57.93827027755863, -34.902843939947353 ], [ -57.938271407021922, -34.902842167045122 ], [ -57.938272505371771, -34.902840374701057 ], [ -57.938273572273623, -34.902838563461131 ], [ -57.938274607402491, -34.902836733877059 ], [ -57.93827561044305, -34.902834886506156 ], [ -57.938276581089781, -34.902833021911135 ], [ -57.938277519047006, -34.902831140659991 ], [ -57.938278424029008, -34.902829243325755 ], [ -57.93827929576014, -34.902827330486375 ], [ -57.938280133974843, -34.902825402724531 ], [ -57.938280938417805, -34.902823460627424 ], [ -57.938281708843974, -34.902821504786644 ], [ -57.938282445018679, -34.90281953579796 ], [ -57.938283146717673, -34.902817554261141 ], [ -57.938283813727203, -34.902815560779779 ], [ -57.938284445844097, -34.902813555961117 ], [ -57.938285042875812, -34.90281154041584 ], [ -57.938285604640477, -34.902809514757898 ], [ -57.938286130966972, -34.902807479604327 ], [ -57.938286621694985, -34.902805435575054 ], [ -57.938287076675024, -34.902803383292721 ], [ -57.938287495768506, -34.902801323382455 ], [ -57.938287878847767, -34.902799256471738 ], [ -57.938288225796114, -34.90279718319016 ], [ -57.938288536507862, -34.902795104169279 ], [ -57.93828881088838, -34.902793020042367 ], [ -57.938289048854074, -34.902790931444279 ], [ -57.93828925033246, -34.902788839011222 ], [ -57.938289415262169, -34.902786743380574 ], [ -57.938289543592958, -34.902784645190671 ], [ -57.938289635285741, -34.902782545080662 ], [ -57.938289690312587, -34.90278044369024 ], [ -57.938289708656733, -34.902778341659527 ], [ -57.938289690312587, -34.902776239628814 ], [ -57.938289635285741, -34.902774138238392 ], [ -57.938289543592958, -34.902772038128383 ], [ -57.938289415262169, -34.90276993993848 ], [ -57.93828925033246, -34.902767844307832 ], [ -57.938289048854074, -34.902765751874774 ], [ -57.93828881088838, -34.902763663276687 ], [ -57.938288536507862, -34.902761579149775 ], [ -57.938288225796114, -34.902759500128894 ], [ -57.938287878847767, -34.902757426847316 ], [ -57.938287495768506, -34.902755359936599 ], [ -57.938287076675024, -34.902753300026333 ], [ -57.938286621694985, -34.902751247744 ], [ -57.938286130966972, -34.902749203714727 ], [ -57.938285604640477, -34.902747168561156 ], [ -57.938285042875812, -34.902745142903214 ], [ -57.938284445844097, -34.902743127357937 ], [ -57.938283813727203, -34.902741122539275 ], [ -57.938283146717673, -34.902739129057913 ], [ -57.938282445018679, -34.902737147521094 ], [ -57.938281708843974, -34.90273517853241 ], [ -57.938280938417805, -34.90273322269163 ], [ -57.938280133974843, -34.902731280594523 ], [ -57.93827929576014, -34.902729352832679 ], [ -57.938278424029008, -34.902727439993299 ], [ -57.938277519047006, -34.902725542659063 ], [ -57.938276581089781, -34.902723661407919 ], [ -57.93827561044305, -34.902721796812898 ], [ -57.938274607402491, -34.902719949441995 ], [ -57.938273572273623, -34.902718119857923 ], [ -57.938272505371771, -34.902716308617997 ], [ -57.938271407021922, -34.902714516273932 ], [ -57.93827027755863, -34.902712743371701 ], [ -57.938269117325959, -34.902710990451347 ], [ -57.938267926677312, -34.902709258046819 ], [ -57.93826670597538, -34.902707546685825 ], [ -57.938265455592003, -34.902705856889675 ], [ -57.938264175908053, -34.902704189173079 ], [ -57.938262867313341, -34.902702544044054 ], [ -57.938261530206468, -34.902700922003717 ], [ -57.938260164994745, -34.902699323546159 ], [ -57.938258772094009, -34.902697749158278 ], [ -57.93825735192857, -34.902696199319657 ], [ -57.938255904931005, -34.902694674502392 ], [ -57.938254431542106, -34.902693175170945 ], [ -57.938252932210659, -34.902691701782047 ], [ -57.938251407393395, -34.902690254784481 ], [ -57.938249857554773, -34.902688834619042 ], [ -57.938248283166892, -34.902687441718307 ], [ -57.938246684709334, -34.902686076506583 ], [ -57.938245062668997, -34.90268473939971 ], [ -57.938243417539972, -34.902683430804998 ], [ -57.938241749823376, -34.902682151121049 ], [ -57.938240060027226, -34.902680900737671 ], [ -57.938238348666232, -34.902679680035739 ], [ -57.938236616261705, -34.902678489387092 ], [ -57.93823486334135, -34.902677329154422 ], [ -57.93823309043912, -34.902676199691129 ], [ -57.938231298095054, -34.902675101341281 ], [ -57.938229486855128, -34.902674034439428 ], [ -57.938227657271057, -34.90267299931056 ], [ -57.938225809900153, -34.902671996270001 ], [ -57.938223945305133, -34.90267102562327 ], [ -57.938222064053988, -34.902670087666046 ], [ -57.938220166719752, -34.902669182684043 ], [ -57.938218253880372, -34.902668310952912 ], [ -57.938216326118528, -34.902667472738209 ], [ -57.938214384021421, -34.902666668295247 ], [ -57.938212428180641, -34.902665897869078 ], [ -57.938210459191957, -34.902665161694372 ], [ -57.938208477655138, -34.902664459995378 ], [ -57.938206484173776, -34.902663792985848 ], [ -57.938204479355115, -34.902663160868954 ], [ -57.938202463809837, -34.902662563837239 ], [ -57.938200438151895, -34.902662002072574 ], [ -57.938198402998324, -34.902661475746079 ], [ -57.938196358969051, -34.902660985018066 ], [ -57.938194306686718, -34.902660530038027 ], [ -57.938192246776453, -34.902660110944545 ], [ -57.938190179865735, -34.902659727865284 ], [ -57.938188106584157, -34.902659380916937 ], [ -57.938186027563276, -34.902659070205189 ], [ -57.938183943436364, -34.902658795824671 ], [ -57.938181854838277, -34.902658557858977 ], [ -57.93817976240522, -34.902658356380591 ], [ -57.938177666774571, -34.902658191450882 ], [ -57.938175568584668, -34.902658063120093 ], [ -57.938173468474659, -34.90265797142731 ], [ -57.938171367084237, -34.902657916400464 ], [ -57.938169265053524, -34.902657898056319 ] ] ] } },
{ "type": "Feature", "properties": { "fid": 85, "Nam": "Aula 1-4", "Cat": "Aula", "aula": "AULA_1-4", "auxiliary_storage_labeling_positionx": null, "auxiliary_storage_labeling_positiony": null, "auxiliary_storage_labeling_lineanchorpercent": null, "auxiliary_storage_labeling_lineanchorclipping": null, "auxiliary_storage_labeling_lineanchortype": null, "auxiliary_storage_labeling_lineanchortextpoint": null }, "geometry": { "type": "Polygon", "coordinates": [ [ [ -57.93778558177182, -34.902463600874221 ], [ -57.937782640459353, -34.902463626542662 ], [ -57.937779700042846, -34.902463703540185 ], [ -57.937776761417965, -34.902463831843313 ], [ -57.937773825479852, -34.902464011412981 ], [ -57.937770893122817, -34.902464242194483 ], [ -57.937767965240084, -34.902464524117526 ], [ -57.937765042723527, -34.902464857096227 ], [ -57.937762126463355, -34.902465241029162 ], [ -57.937759217347896, -34.902465675799384 ], [ -57.937756316263297, -34.902466161274447 ], [ -57.937753424093259, -34.90246669730648 ], [ -57.937750541718763, -34.9024672837322 ], [ -57.937747670017799, -34.902467920372978 ], [ -57.93774480986513, -34.902468607034884 ], [ -57.937741962131973, -34.902469343508749 ], [ -57.937739127685788, -34.902470129570247 ], [ -57.937736307389962, -34.902470964979933 ], [ -57.93773350210359, -34.902471849483327 ], [ -57.937730712681187, -34.902472782811003 ], [ -57.937727939972447, -34.902473764678668 ], [ -57.937725184821957, -34.902474794787224 ], [ -57.937722448068961, -34.902475872822897 ], [ -57.937719730547101, -34.90247699845731 ], [ -57.937717033084162, -34.902478171347575 ], [ -57.937714356501822, -34.902479391136424 ], [ -57.937711701615385, -34.902480657452294 ], [ -57.937709069233556, -34.902481969909459 ], [ -57.937706460158189, -34.902483328108126 ], [ -57.937703875184035, -34.90248473163458 ], [ -57.937701315098501, -34.902486180061288 ], [ -57.937698780681409, -34.902487672947039 ], [ -57.93769627270477, -34.902489209837107 ], [ -57.937693791932539, -34.902490790263315 ], [ -57.937691339120384, -34.90249241374427 ], [ -57.93768891501545, -34.902494079785427 ], [ -57.937686520356145, -34.90249578787931 ], [ -57.937684155871914, -34.902497537505603 ], [ -57.93768182228299, -34.90249932813137 ], [ -57.937679520300208, -34.902501159211148 ], [ -57.93767725062478, -34.902503030187184 ], [ -57.937675013948073, -34.902504940489564 ], [ -57.937672810951391, -34.902506889536383 ], [ -57.937670642305797, -34.902508876733947 ], [ -57.937668508671877, -34.902510901476937 ], [ -57.937666410699556, -34.902512963148595 ], [ -57.937664349027898, -34.902515061120916 ], [ -57.937662324284908, -34.902517194754836 ], [ -57.937660337087344, -34.90251936340043 ], [ -57.937658388040525, -34.902521566397112 ], [ -57.937656477738145, -34.902523803073819 ], [ -57.937654606762109, -34.902526072749247 ], [ -57.937652775682331, -34.902528374732029 ], [ -57.937650985056564, -34.902530708320953 ], [ -57.937649235430271, -34.902533072805184 ], [ -57.937647527336388, -34.902535467464489 ], [ -57.937645861295231, -34.902537891569423 ], [ -57.937644237814276, -34.902540344381578 ], [ -57.937642657388068, -34.902542825153809 ], [ -57.937641120498, -34.902545333130448 ], [ -57.937639627612249, -34.90254786754754 ], [ -57.937638179185541, -34.902550427633074 ], [ -57.937636775659087, -34.902553012607228 ], [ -57.93763541746042, -34.902555621682595 ], [ -57.937634105003255, -34.902558254064424 ], [ -57.937632838687385, -34.902560908950861 ], [ -57.937631618898536, -34.902563585533201 ], [ -57.937630446008271, -34.902566282996141 ], [ -57.937629320373858, -34.902569000518 ], [ -57.937628242338185, -34.902571737270996 ], [ -57.937627212229629, -34.902574492421486 ], [ -57.937626230361964, -34.902577265130226 ], [ -57.937625297034288, -34.902580054552629 ], [ -57.937624412530894, -34.902582859839001 ], [ -57.937623577121208, -34.902585680134827 ], [ -57.937622791059709, -34.902588514581012 ], [ -57.937622054585844, -34.902591362314169 ], [ -57.937621367923938, -34.902594222466838 ], [ -57.937620731283161, -34.902597094167803 ], [ -57.937620144857441, -34.902599976542298 ], [ -57.937619608825408, -34.902602868712336 ], [ -57.937619123350345, -34.902605769796935 ], [ -57.937618688580123, -34.902608678912394 ], [ -57.937618304647188, -34.902611595172566 ], [ -57.937617971668487, -34.902614517689123 ], [ -57.937617689745444, -34.902617445571856 ], [ -57.937617458963942, -34.902620377928891 ], [ -57.937617279394274, -34.902623313867004 ], [ -57.937617151091146, -34.902626252491885 ], [ -57.937617074093623, -34.902629192908392 ], [ -57.937617048425182, -34.902632134220859 ], [ -57.937617074093623, -34.902635075533325 ], [ -57.937617151091146, -34.902638015949833 ], [ -57.937617279394274, -34.902640954574714 ], [ -57.937617458963942, -34.902643890512827 ], [ -57.937617689745444, -34.902646822869862 ], [ -57.937617971668487, -34.902649750752595 ], [ -57.937618304647188, -34.902652673269152 ], [ -57.937618688580123, -34.902655589529324 ], [ -57.937619123350345, -34.902658498644783 ], [ -57.937619608825408, -34.902661399729382 ], [ -57.937620144857441, -34.90266429189942 ], [ -57.937620731283161, -34.902667174273915 ], [ -57.937621367923938, -34.90267004597488 ], [ -57.937622054585844, -34.902672906127549 ], [ -57.937622791059709, -34.902675753860706 ], [ -57.937623577121208, -34.902678588306891 ], [ -57.937624412530894, -34.902681408602717 ], [ -57.937625297034288, -34.902684213889088 ], [ -57.937626230361964, -34.902687003311492 ], [ -57.937627212229629, -34.902689776020232 ], [ -57.937628242338185, -34.902692531170722 ], [ -57.937629320373858, -34.902695267923718 ], [ -57.937630446008271, -34.902697985445577 ], [ -57.937631618898536, -34.902700682908517 ], [ -57.937632838687385, -34.902703359490857 ], [ -57.937634105003255, -34.902706014377294 ], [ -57.93763541746042, -34.902708646759123 ], [ -57.937636775659087, -34.90271125583449 ], [ -57.937638179185541, -34.902713840808644 ], [ -57.937639627612249, -34.902716400894178 ], [ -57.937641120498, -34.90271893531127 ], [ -57.937642657388068, -34.902721443287909 ], [ -57.937644237814276, -34.90272392406014 ], [ -57.937645861295231, -34.902726376872295 ], [ -57.937647527336388, -34.902728800977229 ], [ -57.937649235430271, -34.902731195636534 ], [ -57.937650985056564, -34.902733560120765 ], [ -57.937652775682331, -34.902735893709689 ], [ -57.937654606762109, -34.902738195692471 ], [ -57.937656477738145, -34.902740465367899 ], [ -57.937658388040525, -34.902742702044605 ], [ -57.937660337087344, -34.902744905041288 ], [ -57.937662324284908, -34.902747073686882 ], [ -57.937664349027898, -34.902749207320802 ], [ -57.937666410699556, -34.902751305293123 ], [ -57.937668508671877, -34.902753366964781 ], [ -57.937670642305797, -34.902755391707771 ], [ -57.937672810951391, -34.902757378905335 ], [ -57.937675013948073, -34.902759327952154 ], [ -57.93767725062478, -34.902761238254534 ], [ -57.937679520300208, -34.90276310923057 ], [ -57.93768182228299, -34.902764940310348 ], [ -57.937684155871914, -34.902766730936115 ], [ -57.937686520356145, -34.902768480562408 ], [ -57.93768891501545, -34.902770188656291 ], [ -57.937691339120384, -34.902771854697448 ], [ -57.937693791932539, -34.902773478178403 ], [ -57.93769627270477, -34.902775058604611 ], [ -57.937698780681409, -34.902776595494679 ], [ -57.937701315098501, -34.90277808838043 ], [ -57.937703875184035, -34.902779536807138 ], [ -57.937706460158189, -34.902780940333592 ], [ -57.937709069233556, -34.902782298532259 ], [ -57.937711701615385, -34.902783610989424 ], [ -57.937714356501822, -34.902784877305294 ], [ -57.937717033084162, -34.902786097094143 ], [ -57.937719730547101, -34.902787269984408 ], [ -57.937722448068961, -34.902788395618821 ], [ -57.937725184821957, -34.902789473654494 ], [ -57.937727939972447, -34.90279050376305 ], [ -57.937730712681187, -34.902791485630715 ], [ -57.93773350210359, -34.902792418958391 ], [ -57.937736307389962, -34.902793303461785 ], [ -57.937739127685788, -34.902794138871471 ], [ -57.937741962131973, -34.902794924932969 ], [ -57.93774480986513, -34.902795661406834 ], [ -57.937747670017799, -34.90279634806874 ], [ -57.937750541718763, -34.902796984709518 ], [ -57.937753424093259, -34.902797571135238 ], [ -57.937756316263297, -34.902798107167271 ], [ -57.937759217347896, -34.902798592642334 ], [ -57.937762126463355, -34.902799027412556 ], [ -57.937765042723527, -34.902799411345491 ], [ -57.937767965240084, -34.902799744324192 ], [ -57.937770893122817, -34.902800026247235 ], [ -57.937773825479852, -34.902800257028737 ], [ -57.937776761417965, -34.902800436598405 ], [ -57.937779700042846, -34.902800564901533 ], [ -57.937782640459353, -34.902800641899056 ], [ -57.93778558177182, -34.902800667567497 ], [ -57.937788523084286, -34.902800641899056 ], [ -57.937791463500794, -34.902800564901533 ], [ -57.937794402125675, -34.902800436598405 ], [ -57.937797338063788, -34.902800257028737 ], [ -57.937800270420823, -34.902800026247235 ], [ -57.937803198303556, -34.902799744324192 ], [ -57.937806120820113, -34.902799411345491 ], [ -57.937809037080285, -34.902799027412556 ], [ -57.937811946195744, -34.902798592642334 ], [ -57.937814847280343, -34.902798107167271 ], [ -57.937817739450381, -34.902797571135238 ], [ -57.937820621824876, -34.902796984709518 ], [ -57.93782349352584, -34.90279634806874 ], [ -57.93782635367851, -34.902795661406834 ], [ -57.937829201411667, -34.902794924932969 ], [ -57.937832035857852, -34.902794138871471 ], [ -57.937834856153678, -34.902793303461785 ], [ -57.937837661440049, -34.902792418958391 ], [ -57.937840450862453, -34.902791485630715 ], [ -57.937843223571193, -34.90279050376305 ], [ -57.937845978721683, -34.902789473654494 ], [ -57.937848715474679, -34.902788395618821 ], [ -57.937851432996538, -34.902787269984408 ], [ -57.937854130459478, -34.902786097094143 ], [ -57.937856807041818, -34.902784877305294 ], [ -57.937859461928255, -34.902783610989424 ], [ -57.937862094310084, -34.902782298532259 ], [ -57.937864703385451, -34.902780940333592 ], [ -57.937867288359605, -34.902779536807138 ], [ -57.937869848445139, -34.90277808838043 ], [ -57.937872382862231, -34.902776595494679 ], [ -57.93787489083887, -34.902775058604611 ], [ -57.937877371611101, -34.902773478178403 ], [ -57.937879824423256, -34.902771854697448 ], [ -57.93788224852819, -34.902770188656291 ], [ -57.937884643187495, -34.902768480562408 ], [ -57.937887007671726, -34.902766730936115 ], [ -57.93788934126065, -34.902764940310348 ], [ -57.937891643243432, -34.90276310923057 ], [ -57.937893912918859, -34.902761238254534 ], [ -57.937896149595566, -34.902759327952154 ], [ -57.937898352592249, -34.902757378905335 ], [ -57.937900521237843, -34.902755391707771 ], [ -57.937902654871763, -34.902753366964781 ], [ -57.937904752844084, -34.902751305293123 ], [ -57.937906814515742, -34.902749207320802 ], [ -57.937908839258732, -34.902747073686882 ], [ -57.937910826456296, -34.902744905041288 ], [ -57.937912775503115, -34.902742702044605 ], [ -57.937914685805495, -34.902740465367899 ], [ -57.937916556781531, -34.902738195692471 ], [ -57.937918387861309, -34.902735893709689 ], [ -57.937920178487076, -34.902733560120765 ], [ -57.937921928113369, -34.902731195636534 ], [ -57.937923636207252, -34.902728800977229 ], [ -57.937925302248409, -34.902726376872295 ], [ -57.937926925729364, -34.90272392406014 ], [ -57.937928506155572, -34.902721443287909 ], [ -57.93793004304564, -34.90271893531127 ], [ -57.937931535931391, -34.902716400894178 ], [ -57.937932984358099, -34.902713840808644 ], [ -57.937934387884553, -34.90271125583449 ], [ -57.93793574608322, -34.902708646759123 ], [ -57.937937058540385, -34.902706014377294 ], [ -57.937938324856255, -34.902703359490857 ], [ -57.937939544645104, -34.902700682908517 ], [ -57.937940717535369, -34.902697985445577 ], [ -57.937941843169781, -34.902695267923718 ], [ -57.937942921205455, -34.902692531170722 ], [ -57.937943951314011, -34.902689776020232 ], [ -57.937944933181676, -34.902687003311492 ], [ -57.937945866509352, -34.902684213889088 ], [ -57.937946751012745, -34.902681408602717 ], [ -57.937947586422432, -34.902678588306891 ], [ -57.93794837248393, -34.902675753860706 ], [ -57.937949108957795, -34.902672906127549 ], [ -57.937949795619701, -34.90267004597488 ], [ -57.937950432260479, -34.902667174273915 ], [ -57.937951018686199, -34.90266429189942 ], [ -57.937951554718232, -34.902661399729382 ], [ -57.937952040193295, -34.902658498644783 ], [ -57.937952474963517, -34.902655589529324 ], [ -57.937952858896452, -34.902652673269152 ], [ -57.937953191875152, -34.902649750752595 ], [ -57.937953473798196, -34.902646822869862 ], [ -57.937953704579698, -34.902643890512827 ], [ -57.937953884149366, -34.902640954574714 ], [ -57.937954012452494, -34.902638015949833 ], [ -57.937954089450017, -34.902635075533325 ], [ -57.937954115118458, -34.902632134220859 ], [ -57.937954089450017, -34.902629192908392 ], [ -57.937954012452494, -34.902626252491885 ], [ -57.937953884149366, -34.902623313867004 ], [ -57.937953704579698, -34.902620377928891 ], [ -57.937953473798196, -34.902617445571856 ], [ -57.937953191875152, -34.902614517689123 ], [ -57.937952858896452, -34.902611595172566 ], [ -57.937952474963517, -34.902608678912394 ], [ -57.937952040193295, -34.902605769796935 ], [ -57.937951554718232, -34.902602868712336 ], [ -57.937951018686199, -34.902599976542298 ], [ -57.937950432260479, -34.902597094167803 ], [ -57.937949795619701, -34.902594222466838 ], [ -57.937949108957795, -34.902591362314169 ], [ -57.93794837248393, -34.902588514581012 ], [ -57.937947586422432, -34.902585680134827 ], [ -57.937946751012745, -34.902582859839001 ], [ -57.937945866509352, -34.902580054552629 ], [ -57.937944933181676, -34.902577265130226 ], [ -57.937943951314011, -34.902574492421486 ], [ -57.937942921205455, -34.902571737270996 ], [ -57.937941843169781, -34.902569000518 ], [ -57.937940717535369, -34.902566282996141 ], [ -57.937939544645104, -34.902563585533201 ], [ -57.937938324856255, -34.902560908950861 ], [ -57.937937058540385, -34.902558254064424 ], [ -57.93793574608322, -34.902555621682595 ], [ -57.937934387884553, -34.902553012607228 ], [ -57.937932984358099, -34.902550427633074 ], [ -57.937931535931391, -34.90254786754754 ], [ -57.93793004304564, -34.902545333130448 ], [ -57.937928506155572, -34.902542825153809 ], [ -57.937926925729364, -34.902540344381578 ], [ -57.937925302248409, -34.902537891569423 ], [ -57.937923636207252, -34.902535467464489 ], [ -57.937921928113369, -34.902533072805184 ], [ -57.937920178487076, -34.902530708320953 ], [ -57.937918387861309, -34.902528374732029 ], [ -57.937916556781531, -34.902526072749247 ], [ -57.937914685805495, -34.902523803073819 ], [ -57.937912775503115, -34.902521566397112 ], [ -57.937910826456296, -34.90251936340043 ], [ -57.937908839258732, -34.902517194754836 ], [ -57.937906814515742, -34.902515061120916 ], [ -57.937904752844084, -34.902512963148595 ], [ -57.937902654871763, -34.902510901476937 ], [ -57.937900521237843, -34.902508876733947 ], [ -57.937898352592249, -34.902506889536383 ], [ -57.937896149595566, -34.902504940489564 ], [ -57.937893912918859, -34.902503030187184 ], [ -57.937891643243432, -34.902501159211148 ], [ -57.93788934126065, -34.90249932813137 ], [ -57.937887007671726, -34.902497537505603 ], [ -57.937884643187495, -34.90249578787931 ], [ -57.93788224852819, -34.902494079785427 ], [ -57.937879824423256, -34.90249241374427 ], [ -57.937877371611101, -34.902490790263315 ], [ -57.93787489083887, -34.902489209837107 ], [ -57.937872382862231, -34.902487672947039 ], [ -57.937869848445139, -34.902486180061288 ], [ -57.937867288359605, -34.90248473163458 ], [ -57.937864703385451, -34.902483328108126 ], [ -57.937862094310084, -34.902481969909459 ], [ -57.937859461928255, -34.902480657452294 ], [ -57.937856807041818, -34.902479391136424 ], [ -57.937854130459478, -34.902478171347575 ], [ -57.937851432996538, -34.90247699845731 ], [ -57.937848715474679, -34.902475872822897 ], [ -57.937845978721683, -34.902474794787224 ], [ -57.937843223571193, -34.902473764678668 ], [ -57.937840450862453, -34.902472782811003 ], [ -57.937837661440049, -34.902471849483327 ], [ -57.937834856153678, -34.902470964979933 ], [ -57.937832035857852, -34.902470129570247 ], [ -57.937829201411667, -34.902469343508749 ], [ -57.93782635367851, -34.902468607034884 ], [ -57.93782349352584, -34.902467920372978 ], [ -57.937820621824876, -34.9024672837322 ], [ -57.937817739450381, -34.90246669730648 ], [ -57.937814847280343, -34.902466161274447 ], [ -57.937811946195744, -34.902465675799384 ], [ -57.937809037080285, -34.902465241029162 ], [ -57.937806120820113, -34.902464857096227 ], [ -57.937803198303556, -34.902464524117526 ], [ -57.937800270420823, -34.902464242194483 ], [ -57.937797338063788, -34.902464011412981 ], [ -57.937794402125675, -34.902463831843313 ], [ -57.937791463500794, -34.902463703540185 ], [ -57.937788523084286, -34.902463626542662 ], [ -57.93778558177182, -34.902463600874221 ] ] ] } },
{ "type": "Feature", "properties": { "fid": 86, "Nam": "Aula Android", "Cat": "Aula", "aula": "AULA_ANDROID", "auxiliary_storage_labeling_positionx": null, "auxiliary_storage_labeling_positiony": null, "auxiliary_storage_labeling_lineanchorpercent": null, "auxiliary_storage_labeling_lineanchorclipping": null, "auxiliary_storage_labeling_lineanchortype": null, "auxiliary_storage_labeling_lineanchortextpoint": null }, "geometry": { "type": "Polygon", "coordinates": [ [ [ -57.93933758167951, -34.904360351835564 ], [ -57.939096275837549, -34.904135573790995 ], [ -57.939304526084726, -34.903924017984345 ], [ -57.939529304129294, -34.904142184909958 ], [ -57.93933758167951, -34.904360351835564 ] ] ] } },
{ "type": "Feature", "properties": { "fid": 87, "Nam": "Aula Javascript", "Cat": "Aula", "aula": "AULA_JAVASCRIPT", "auxiliary_storage_labeling_positionx": null, "auxiliary_storage_labeling_positiony": null, "auxiliary_storage_labeling_lineanchorpercent": null, "auxiliary_storage_labeling_lineanchorclipping": null, "auxiliary_storage_labeling_lineanchortype": null, "auxiliary_storage_labeling_lineanchortextpoint": null }, "geometry": { "type": "Polygon", "coordinates": [ [ [ -57.93993754072492, -34.904413240787221 ], [ -57.939714415460095, -34.904196726641352 ], [ -57.939514429111632, -34.904421504685928 ], [ -57.939706151561417, -34.904623143814142 ], [ -57.93993754072492, -34.904413240787221 ] ] ] } },
{ "type": "Feature", "properties": { "fid": 88, "Nam": "Aula Mathlab", "Cat": "Aula", "aula": "AULA_MATHLAB", "auxiliary_storage_labeling_positionx": null, "auxiliary_storage_labeling_positiony": null, "auxiliary_storage_labeling_lineanchorpercent": null, "auxiliary_storage_labeling_lineanchorclipping": null, "auxiliary_storage_labeling_lineanchortype": null, "auxiliary_storage_labeling_lineanchortextpoint": null }, "geometry": { "type": "Polygon", "coordinates": [ [ [ -57.93987218647414, -34.904642587170947 ], [ -57.940049165871564, -34.90481421931004 ], [ -57.939900779452742, -34.904970626616375 ], [ -57.939723674694832, -34.904803641956434 ], [ -57.93987218647414, -34.904642587170947 ] ] ] } },
{ "type": "Feature", "properties": { "fid": 89, "Nam": "Aula Scratch", "Cat": "Aula", "aula": "AULA_SCRATCH", "auxiliary_storage_labeling_positionx": null, "auxiliary_storage_labeling_positiony": null, "auxiliary_storage_labeling_lineanchorpercent": null, "auxiliary_storage_labeling_lineanchorclipping": null, "auxiliary_storage_labeling_lineanchortype": null, "auxiliary_storage_labeling_lineanchortextpoint": null }, "geometry": { "type": "Polygon", "coordinates": [ [ [ -57.939426005395568, -34.904481831146427 ], [ -57.939671443186882, -34.904704130021386 ], [ -57.939441706803095, -34.904928908065955 ], [ -57.939207012080089, -34.904720657818785 ], [ -57.939426005395568, -34.904481831146427 ] ] ] } },
{ "type": "Feature", "properties": { "fid": 90, "Nam": "Proyecto Con Alumnos", "Cat": "Aula", "aula": "PROYECTO_CON_ALUMNOS", "auxiliary_storage_labeling_positionx": null, "auxiliary_storage_labeling_positiony": null, "auxiliary_storage_labeling_lineanchorpercent": null, "auxiliary_storage_labeling_lineanchorclipping": null, "auxiliary_storage_labeling_lineanchortype": null, "auxiliary_storage_labeling_lineanchortextpoint": null }, "geometry": { "type": "Polygon", "coordinates": [ [ [ -57.939045039665608, -34.904203337760308 ], [ -57.938831831079213, -34.904426463025132 ], [ -57.93909131749831, -34.904676032765792 ], [ -57.939301220525223, -34.90440993522774 ], [ -57.939045039665608, -34.904203337760308 ] ] ] } },
{ "type": "Feature", "properties": { "fid": null, "Nam": "Segundo Piso", "Cat": null, "aula": "Segundo Piso", "auxiliary_storage_labeling_positionx": null, "auxiliary_storage_labeling_positiony": null, "auxiliary_storage_labeling_lineanchorpercent": null, "auxiliary_storage_labeling_lineanchorclipping": null, "auxiliary_storage_labeling_lineanchortype": null, "auxiliary_storage_labeling_lineanchortextpoint": null }, "geometry": { "type": "Polygon", "coordinates": [ [ [ -57.939205221772923, -34.903100338317792 ], [ -57.93913570741455, -34.903405132042948 ], [ -57.937472710072036, -34.90277950281763 ], [ -57.937609065159606, -34.902188630771498 ], [ -57.93921056903126, -34.903052212992769 ], [ -57.939205221772923, -34.903100338317792 ] ] ] } },
{ "type": "Feature", "properties": { "fid": null, "Nam": "CIyTT", "Cat": null, "aula": "CIyTT", "auxiliary_storage_labeling_positionx": null, "auxiliary_storage_labeling_positiony": null, "auxiliary_storage_labeling_lineanchorpercent": null, "auxiliary_storage_labeling_lineanchorclipping": null, "auxiliary_storage_labeling_lineanchortype": null, "auxiliary_storage_labeling_lineanchortextpoint": null }, "geometry": { "type": "Polygon", "coordinates": [ [ [ -57.938721294893504, -34.904434479272638 ], [ -57.939362965893835, -34.903717946655611 ], [ -57.940405681269368, -34.904723231222789 ], [ -57.939742621235695, -34.905407680289805 ], [ -57.938721294893504, -34.904434479272638 ] ] ] } }
]
}
